<?xml version="1.0" encoding="UTF-8"?>
<gpx creator="run-routes sample" version="1.1" xmlns="http://www.topografix.com/GPX/1/1">
  <trk>
    <name>Sample Loop</name>
    <trkseg>
      <trkpt lat="40.78135" lon="-73.96625"/>
      <trkpt lat="40.78290" lon="-73.96700"/>
      <trkpt lat="40.78450" lon="-73.96755"/>
      <trkpt lat="40.78610" lon="-73.96770"/>
      <trkpt lat="40.78760" lon="-73.96730"/>
      <trkpt lat="40.78880" lon="-73.96640"/>
      <trkpt lat="40.78960" lon="-73.96510"/>
      <trkpt lat="40.78990" lon="-73.96360"/>
      <trkpt lat="40.78960" lon="-73.96210"/>
      <trkpt lat="40.78880" lon="-73.96090"/>
      <trkpt lat="40.78760" lon="-73.96000"/>
      <trkpt lat="40.78610" lon="-73.95960"/>
      <trkpt lat="40.78450" lon="-73.95975"/>
      <trkpt lat="40.78300" lon="-73.96040"/>
      <trkpt lat="40.78190" lon="-73.96150"/>
      <trkpt lat="40.78120" lon="-73.96300"/>
      <trkpt lat="40.78105" lon="-73.96460"/>
      <trkpt lat="40.78135" lon="-73.96625"/>
    </trkseg>
  </trk>
</gpx>
