<?xml version="1.0" encoding="UTF-8"?>
<gpx creator="Garmin Connect" version="1.1"
  xsi:schemaLocation="http://www.topografix.com/GPX/1/1 http://www.topografix.com/GPX/11.xsd"
  xmlns:ns3="http://www.garmin.com/xmlschemas/TrackPointExtension/v1"
  xmlns="http://www.topografix.com/GPX/1/1"
  xmlns:xsi="http://www.w3.org/2001/XMLSchema-instance" xmlns:ns2="http://www.garmin.com/xmlschemas/GpxExtensions/v3">
  <metadata>
    <name>McKinney Run Club - 4 Mile Loop</name>
    <link href="connect.garmin.com">
      <text>Garmin Connect</text>
    </link>
    <time>2024-04-07T13:48:48.000Z</time>
  </metadata>
  <trk>
    <name>McKinney Run Club - 4 Mile Loop</name>
    <trkseg>
      <trkpt lat="33.17516991868615" lon="-96.69604998081923">
        <ele>224.4</ele>
      </trkpt>
      <trkpt lat="33.17504997365177" lon="-96.69619079679251">
        <ele>224.9</ele>
      </trkpt>
      <trkpt lat="33.174987779930234" lon="-96.69626380316913">
        <ele>225.0</ele>
      </trkpt>
      <trkpt lat="33.17477161064744" lon="-96.69651760719717">
        <ele>225.0</ele>
      </trkpt>
      <trkpt lat="33.17474017851055" lon="-96.69655448757112">
        <ele>225.0</ele>
      </trkpt>
      <trkpt lat="33.17452979274094" lon="-96.69680150225759">
        <ele>225.0</ele>
      </trkpt>
      <trkpt lat="33.17447992041707" lon="-96.69685992412269">
        <ele>225.2</ele>
      </trkpt>
      <trkpt lat="33.17438520491123" lon="-96.69685992412269">
        <ele>225.3</ele>
      </trkpt>
      <trkpt lat="33.17426995374262" lon="-96.69685992412269">
        <ele>225.3</ele>
      </trkpt>
      <trkpt lat="33.17425997927785" lon="-96.69685992412269">
        <ele>225.3</ele>
      </trkpt>
      <trkpt lat="33.17414992488921" lon="-96.6968699824065">
        <ele>225.3</ele>
      </trkpt>
      <trkpt lat="33.174154702574015" lon="-96.69707517139614">
        <ele>226.0</ele>
      </trkpt>
      <trkpt lat="33.174164509400725" lon="-96.6975037381053">
        <ele>226.0</ele>
      </trkpt>
      <trkpt lat="33.17416819743812" lon="-96.69766374863684">
        <ele>226.2</ele>
      </trkpt>
      <trkpt lat="33.17417314276099" lon="-96.69787748716772">
        <ele>227.0</ele>
      </trkpt>
      <trkpt lat="33.17417557351291" lon="-96.69798485934734">
        <ele>227.0</ele>
      </trkpt>
      <trkpt lat="33.17417808808386" lon="-96.698092315346">
        <ele>227.0</ele>
      </trkpt>
      <trkpt lat="33.17418462596834" lon="-96.69837688095868">
        <ele>227.0</ele>
      </trkpt>
      <trkpt lat="33.17418772727251" lon="-96.6985122486949">
        <ele>227.2</ele>
      </trkpt>
      <trkpt lat="33.17418999038637" lon="-96.69860998168588">
        <ele>227.3</ele>
      </trkpt>
      <trkpt lat="33.174190912395716" lon="-96.6987625323236">
        <ele>227.3</ele>
      </trkpt>
      <trkpt lat="33.17419149912894" lon="-96.69886998832226">
        <ele>227.5</ele>
      </trkpt>
      <trkpt lat="33.17419409751892" lon="-96.69929863885045">
        <ele>228.0</ele>
      </trkpt>
      <trkpt lat="33.1741951033473" lon="-96.69945982284844">
        <ele>228.0</ele>
      </trkpt>
      <trkpt lat="33.17419569008052" lon="-96.6995672788471">
        <ele>228.1</ele>
      </trkpt>
      <trkpt lat="33.174197701737285" lon="-96.69988855719566">
        <ele>229.0</ele>
      </trkpt>
      <trkpt lat="33.17419828847051" lon="-96.69999601319432">
        <ele>229.0</ele>
      </trkpt>
      <trkpt lat="33.17419895902276" lon="-96.70010338537395">
        <ele>229.0</ele>
      </trkpt>
      <trkpt lat="33.174199629575014" lon="-96.70021084137261">
        <ele>229.0</ele>
      </trkpt>
      <trkpt lat="33.17419996485114" lon="-96.70026993378997">
        <ele>229.0</ele>
      </trkpt>
      <trkpt lat="33.174210442230105" lon="-96.70053178444505">
        <ele>229.0</ele>
      </trkpt>
      <trkpt lat="33.174221171066165" lon="-96.70080008916557">
        <ele>229.0</ele>
      </trkpt>
      <trkpt lat="33.174227541312575" lon="-96.70096001587808">
        <ele>228.9</ele>
      </trkpt>
      <trkpt lat="33.17423181608319" lon="-96.70106738805771">
        <ele>228.6</ele>
      </trkpt>
      <trkpt lat="33.174238270148635" lon="-96.7012283205986">
        <ele>228.0</ele>
      </trkpt>
      <trkpt lat="33.17423994652927" lon="-96.70126997865736">
        <ele>227.9</ele>
      </trkpt>
      <trkpt lat="33.17423994652927" lon="-96.70127995312214">
        <ele>227.9</ele>
      </trkpt>
      <trkpt lat="33.17424044944346" lon="-96.70133569277823">
        <ele>227.7</ele>
      </trkpt>
      <trkpt lat="33.17424153909087" lon="-96.70144314877689">
        <ele>227.3</ele>
      </trkpt>
      <trkpt lat="33.174244640395045" lon="-96.70176761224866">
        <ele>226.1</ele>
      </trkpt>
      <trkpt lat="33.174245646223426" lon="-96.7018728889525">
        <ele>226.0</ele>
      </trkpt>
      <trkpt lat="33.17424765788019" lon="-96.70208453200758">
        <ele>225.9</ele>
      </trkpt>
      <trkpt lat="33.17424916662276" lon="-96.70224362052977">
        <ele>225.3</ele>
      </trkpt>
      <trkpt lat="33.17425017245114" lon="-96.7023488972336">
        <ele>225.0</ele>
      </trkpt>
      <trkpt lat="33.1742521841079" lon="-96.70256054028869">
        <ele>225.0</ele>
      </trkpt>
      <trkpt lat="33.17425318993628" lon="-96.70266581699252">
        <ele>224.8</ele>
      </trkpt>
      <trkpt lat="33.17425570450723" lon="-96.70293009839952">
        <ele>224.0</ele>
      </trkpt>
      <trkpt lat="33.17425821907818" lon="-96.70319437980652">
        <ele>223.9</ele>
      </trkpt>
      <trkpt lat="33.174259727820754" lon="-96.70335338450968">
        <ele>223.3</ele>
      </trkpt>
      <trkpt lat="33.174260733649135" lon="-96.70345866121352">
        <ele>223.0</ele>
      </trkpt>
      <trkpt lat="33.174262745305896" lon="-96.70367038808763">
        <ele>222.2</ele>
      </trkpt>
      <trkpt lat="33.174263751134276" lon="-96.70377675443888">
        <ele>222.0</ele>
      </trkpt>
      <trkpt lat="33.17426475696266" lon="-96.70388203114271">
        <ele>222.0</ele>
      </trkpt>
      <trkpt lat="33.17426827736199" lon="-96.70425267890096">
        <ele>221.1</ele>
      </trkpt>
      <trkpt lat="33.17426928319037" lon="-96.70435795560479">
        <ele>220.4</ele>
      </trkpt>
      <trkpt lat="33.17427028901875" lon="-96.70446323230863">
        <ele>219.7</ele>
      </trkpt>
      <trkpt lat="33.17427129484713" lon="-96.70456741936505">
        <ele>218.9</ele>
      </trkpt>
      <trkpt lat="33.17427179776132" lon="-96.704620141536">
        <ele>218.8</ele>
      </trkpt>
      <trkpt lat="33.17427330650389" lon="-96.70477805659175">
        <ele>218.2</ele>
      </trkpt>
      <trkpt lat="33.17427431233227" lon="-96.70488333329558">
        <ele>218.1</ele>
      </trkpt>
      <trkpt lat="33.17427481524646" lon="-96.7049359716475">
        <ele>218.4</ele>
      </trkpt>
      <trkpt lat="33.17427624017" lon="-96.70509388670325">
        <ele>218.9</ele>
      </trkpt>
      <trkpt lat="33.17427774891257" lon="-96.70525079593062">
        <ele>219.4</ele>
      </trkpt>
      <trkpt lat="33.174280766397715" lon="-96.70556662604213">
        <ele>220.6</ele>
      </trkpt>
      <trkpt lat="33.174283280968666" lon="-96.70582981780171">
        <ele>221.6</ele>
      </trkpt>
      <trkpt lat="33.174286801368" lon="-96.70619837008417">
        <ele>222.0</ele>
      </trkpt>
      <trkpt lat="33.17428981885314" lon="-96.70651855878532">
        <ele>223.0</ele>
      </trkpt>
      <trkpt lat="33.1742899864912" lon="-96.70652995817363">
        <ele>223.0</ele>
      </trkpt>
      <trkpt lat="33.1742899864912" lon="-96.70651998370886">
        <ele>223.0</ele>
      </trkpt>
      <trkpt lat="33.17429426126182" lon="-96.70670262537897">
        <ele>223.0</ele>
      </trkpt>
      <trkpt lat="33.17430297844112" lon="-96.70706992037594">
        <ele>224.0</ele>
      </trkpt>
      <trkpt lat="33.17430540919304" lon="-96.70717519707978">
        <ele>224.0</ele>
      </trkpt>
      <trkpt lat="33.174311611801386" lon="-96.70743830502033">
        <ele>224.4</ele>
      </trkpt>
      <trkpt lat="33.17431538365781" lon="-96.70759613625705">
        <ele>224.9</ele>
      </trkpt>
      <trkpt lat="33.17431999370456" lon="-96.70778992585838">
        <ele>225.6</ele>
      </trkpt>
      <trkpt lat="33.17431949079037" lon="-96.70785932801664">
        <ele>225.8</ele>
      </trkpt>
      <trkpt lat="33.17431731149554" lon="-96.70817524194717">
        <ele>226.0</ele>
      </trkpt>
      <trkpt lat="33.17431521601975" lon="-96.70849107205868">
        <ele>226.8</ele>
      </trkpt>
      <trkpt lat="33.174314461648464" lon="-96.70859634876251">
        <ele>226.8</ele>
      </trkpt>
      <trkpt lat="33.174313036724925" lon="-96.70880698598921">
        <ele>227.3</ele>
      </trkpt>
      <trkpt lat="33.17431127652526" lon="-96.7090701777488">
        <ele>228.2</ele>
      </trkpt>
      <trkpt lat="33.17431018687785" lon="-96.70922817662358">
        <ele>228.8</ele>
      </trkpt>
      <trkpt lat="33.17430993542075" lon="-96.7092599440366">
        <ele>228.8</ele>
      </trkpt>
      <trkpt lat="33.17440724931657" lon="-96.70925248414278">
        <ele>228.5</ele>
      </trkpt>
      <trkpt lat="33.17443993873894" lon="-96.70924996957183">
        <ele>228.4</ele>
      </trkpt>
      <trkpt lat="33.17442996427417" lon="-96.70924996957183">
        <ele>228.4</ele>
      </trkpt>
      <trkpt lat="33.17448243498802" lon="-96.7092482931912">
        <ele>228.2</ele>
      </trkpt>
      <trkpt lat="33.174525601789355" lon="-96.70924686826766">
        <ele>228.0</ele>
      </trkpt>
      <trkpt lat="33.17456969060004" lon="-96.70924544334412">
        <ele>227.9</ele>
      </trkpt>
      <trkpt lat="33.17461285740137" lon="-96.70924401842058">
        <ele>227.8</ele>
      </trkpt>
      <trkpt lat="33.17483128979802" lon="-96.70923697762191">
        <ele>227.8</ele>
      </trkpt>
      <trkpt lat="33.17500387318432" lon="-96.70923144556582">
        <ele>227.2</ele>
      </trkpt>
      <trkpt lat="33.17504997365177" lon="-96.70922993682325">
        <ele>227.0</ele>
      </trkpt>
      <trkpt lat="33.17508987151086" lon="-96.70922356657684">
        <ele>226.8</ele>
      </trkpt>
      <trkpt lat="33.175261029973626" lon="-96.70919615775347">
        <ele>226.7</ele>
      </trkpt>
      <trkpt lat="33.17529992200434" lon="-96.70918995514512">
        <ele>226.7</ele>
      </trkpt>
      <trkpt lat="33.17550829611719" lon="-96.7091066390276">
        <ele>226.4</ele>
      </trkpt>
      <trkpt lat="33.17554995417595" lon="-96.70908995904028">
        <ele>226.3</ele>
      </trkpt>
      <trkpt lat="33.175675263628364" lon="-96.70902701094747">
        <ele>226.1</ele>
      </trkpt>
      <trkpt lat="33.17584021948278" lon="-96.70894403010607">
        <ele>225.8</ele>
      </trkpt>
      <trkpt lat="33.17604742012918" lon="-96.70883992686868">
        <ele>225.8</ele>
      </trkpt>
      <trkpt lat="33.17613031715155" lon="-96.70879818499088">
        <ele>226.0</ele>
      </trkpt>
      <trkpt lat="33.176212375983596" lon="-96.70875694602728">
        <ele>226.0</ele>
      </trkpt>
      <trkpt lat="33.17641966044903" lon="-96.70865275897086">
        <ele>225.7</ele>
      </trkpt>
      <trkpt lat="33.176668267697096" lon="-96.70852778479457">
        <ele>225.9</ele>
      </trkpt>
      <trkpt lat="33.17683330737054" lon="-96.7084448877722">
        <ele>226.0</ele>
      </trkpt>
      <trkpt lat="33.177066994830966" lon="-96.70832737348974">
        <ele>225.7</ele>
      </trkpt>
      <trkpt lat="33.17726179026067" lon="-96.7082294728607">
        <ele>226.0</ele>
      </trkpt>
      <trkpt lat="33.17733974196017" lon="-96.70819024555385">
        <ele>226.0</ele>
      </trkpt>
      <trkpt lat="33.17741995677352" lon="-96.7081499285996">
        <ele>225.9</ele>
      </trkpt>
      <trkpt lat="33.17761776968837" lon="-96.70810877345502">
        <ele>225.8</ele>
      </trkpt>
      <trkpt lat="33.17765993066132" lon="-96.7080999724567">
        <ele>225.7</ele>
      </trkpt>
      <trkpt lat="33.177828658372164" lon="-96.70807247981429">
        <ele>225.6</ele>
      </trkpt>
      <trkpt lat="33.17803896032274" lon="-96.70803828164935">
        <ele>225.5</ele>
      </trkpt>
      <trkpt lat="33.17808992229402" lon="-96.70802998356521">
        <ele>225.5</ele>
      </trkpt>
      <trkpt lat="33.178300727158785" lon="-96.70804540626705">
        <ele>226.0</ele>
      </trkpt>
      <trkpt lat="33.17849996499717" lon="-96.70805999077857">
        <ele>226.0</ele>
      </trkpt>
      <trkpt lat="33.178562158718705" lon="-96.70807180926204">
        <ele>226.1</ele>
      </trkpt>
      <trkpt lat="33.17869182676077" lon="-96.7080965358764">
        <ele>226.7</ele>
      </trkpt>
      <trkpt lat="33.17870993167162" lon="-96.7080999724567">
        <ele>226.7</ele>
      </trkpt>
      <trkpt lat="33.178775729611516" lon="-96.70812444761395">
        <ele>226.8</ele>
      </trkpt>
      <trkpt lat="33.17885988391936" lon="-96.70815571211278">
        <ele>227.0</ele>
      </trkpt>
      <trkpt lat="33.17902643233538" lon="-96.70821765437722">
        <ele>227.2</ele>
      </trkpt>
      <trkpt lat="33.17927721887827" lon="-96.70831086114049">
        <ele>227.5</ele>
      </trkpt>
      <trkpt lat="33.17944376729429" lon="-96.70837280340493">
        <ele>228.0</ele>
      </trkpt>
      <trkpt lat="33.17948995158076" lon="-96.70838998630643">
        <ele>228.0</ele>
      </trkpt>
      <trkpt lat="33.17956941202283" lon="-96.70842510648072">
        <ele>228.0</ele>
      </trkpt>
      <trkpt lat="33.17969421856105" lon="-96.70848034322262">
        <ele>228.6</ele>
      </trkpt>
      <trkpt lat="33.17977770231664" lon="-96.7085173074156">
        <ele>229.0</ele>
      </trkpt>
      <trkpt lat="33.18009998649359" lon="-96.70865996740758">
        <ele>229.0</ele>
      </trkpt>
      <trkpt lat="33.18011038005352" lon="-96.70866298489273">
        <ele>229.0</ele>
      </trkpt>
      <trkpt lat="33.18019604310393" lon="-96.70868771150708">
        <ele>228.9</ele>
      </trkpt>
      <trkpt lat="33.18032537586987" lon="-96.70872509479523">
        <ele>229.0</ele>
      </trkpt>
      <trkpt lat="33.18050022237003" lon="-96.70877555385232">
        <ele>228.6</ele>
      </trkpt>
      <trkpt lat="33.180549927055836" lon="-96.70878997072577">
        <ele>228.4</ele>
      </trkpt>
      <trkpt lat="33.18066970445216" lon="-96.7088251747191">
        <ele>228.0</ele>
      </trkpt>
      <trkpt lat="33.180719995871186" lon="-96.70883992686868">
        <ele>228.0</ele>
      </trkpt>
      <trkpt lat="33.18075721152127" lon="-96.70883992686868">
        <ele>228.0</ele>
      </trkpt>
      <trkpt lat="33.18084622733295" lon="-96.70883992686868">
        <ele>228.0</ele>
      </trkpt>
      <trkpt lat="33.181169936433434" lon="-96.70883992686868">
        <ele>227.2</ele>
      </trkpt>
      <trkpt lat="33.18129130639136" lon="-96.70883372426033">
        <ele>227.0</ele>
      </trkpt>
      <trkpt lat="33.181559946388006" lon="-96.70881997793913">
        <ele>226.7</ele>
      </trkpt>
      <trkpt lat="33.18168659694493" lon="-96.70877454802394">
        <ele>226.3</ele>
      </trkpt>
      <trkpt lat="33.18189932964742" lon="-96.70869810506701">
        <ele>226.0</ele>
      </trkpt>
      <trkpt lat="33.18194995634258" lon="-96.70867991633713">
        <ele>226.0</ele>
      </trkpt>
      <trkpt lat="33.182061687111855" lon="-96.70861260965466">
        <ele>225.9</ele>
      </trkpt>
      <trkpt lat="33.18222069181502" lon="-96.70851680450141">
        <ele>225.4</ele>
      </trkpt>
      <trkpt lat="33.18241900764406" lon="-96.70839719474316">
        <ele>225.0</ele>
      </trkpt>
      <trkpt lat="33.18267993628979" lon="-96.70823995023966">
        <ele>224.7</ele>
      </trkpt>
      <trkpt lat="33.18269435316324" lon="-96.7082236893475">
        <ele>224.7</ele>
      </trkpt>
      <trkpt lat="33.182791247963905" lon="-96.70811464078724">
        <ele>224.3</ele>
      </trkpt>
      <trkpt lat="33.18305041640997" lon="-96.70782278291881">
        <ele>223.1</ele>
      </trkpt>
      <trkpt lat="33.183147897943854" lon="-96.70771289616823">
        <ele>222.4</ele>
      </trkpt>
      <trkpt lat="33.18321269005537" lon="-96.70763997361064">
        <ele>222.1</ele>
      </trkpt>
      <trkpt lat="33.1833422742784" lon="-96.70749404467642">
        <ele>221.5</ele>
      </trkpt>
      <trkpt lat="33.18340706638992" lon="-96.7074210382998">
        <ele>221.3</ele>
      </trkpt>
      <trkpt lat="33.183439085260034" lon="-96.70738491229713">
        <ele>221.1</ele>
      </trkpt>
      <trkpt lat="33.183568669483066" lon="-96.70723898336291">
        <ele>220.5</ele>
      </trkpt>
      <trkpt lat="33.18362994119525" lon="-96.70716991648078">
        <ele>220.3</ele>
      </trkpt>
      <trkpt lat="33.183747958391905" lon="-96.7070827446878">
        <ele>219.9</ele>
      </trkpt>
      <trkpt lat="33.18381610326469" lon="-96.70703236944973">
        <ele>219.6</ele>
      </trkpt>
      <trkpt lat="33.18385994061828" lon="-96.70699993148446">
        <ele>219.5</ele>
      </trkpt>
      <trkpt lat="33.18385994061828" lon="-96.70698995701969">
        <ele>219.5</ele>
      </trkpt>
      <trkpt lat="33.183981059119105" lon="-96.7072479519993">
        <ele>219.7</ele>
      </trkpt>
      <trkpt lat="33.184153055772185" lon="-96.70761440880597">
        <ele>219.4</ele>
      </trkpt>
      <trkpt lat="33.18426042795181" lon="-96.70784315094352">
        <ele>219.0</ele>
      </trkpt>
      <trkpt lat="33.18436780013144" lon="-96.70807180926204">
        <ele>218.6</ele>
      </trkpt>
      <trkpt lat="33.18451825529337" lon="-96.70839233323932">
        <ele>218.1</ele>
      </trkpt>
      <trkpt lat="33.18454993888736" lon="-96.70845997519791">
        <ele>218.0</ele>
      </trkpt>
      <trkpt lat="33.18460970185697" lon="-96.70842284336686">
        <ele>217.8</ele>
      </trkpt>
      <trkpt lat="33.18468790501356" lon="-96.7083743121475">
        <ele>217.5</ele>
      </trkpt>
      <trkpt lat="33.18484355695546" lon="-96.70827775262296">
        <ele>216.9</ele>
      </trkpt>
      <trkpt lat="33.18512996658683" lon="-96.7080999724567">
        <ele>215.9</ele>
      </trkpt>
      <trkpt lat="33.185273045673966" lon="-96.70792437158525">
        <ele>215.4</ele>
      </trkpt>
      <trkpt lat="33.18534999154508" lon="-96.70782999135554">
        <ele>215.1</ele>
      </trkpt>
      <trkpt lat="33.185362899675965" lon="-96.70780878514051">
        <ele>215.1</ele>
      </trkpt>
      <trkpt lat="33.18541486747563" lon="-96.70772370882332">
        <ele>214.8</ele>
      </trkpt>
      <trkpt lat="33.18545996211469" lon="-96.70764994807541">
        <ele>214.4</ele>
      </trkpt>
      <trkpt lat="33.185461135581136" lon="-96.70763712376356">
        <ele>214.4</ele>
      </trkpt>
      <trkpt lat="33.18547060713172" lon="-96.70753243379295">
        <ele>214.7</ele>
      </trkpt>
      <trkpt lat="33.18547999486327" lon="-96.70742992311716">
        <ele>214.6</ele>
      </trkpt>
      <trkpt lat="33.18547957576811" lon="-96.70742774382234">
        <ele>214.6</ele>
      </trkpt>
      <trkpt lat="33.18546239286661" lon="-96.70732447877526">
        <ele>214.7</ele>
      </trkpt>
      <trkpt lat="33.18544998764992" lon="-96.70724996365607">
        <ele>214.8</ele>
      </trkpt>
      <trkpt lat="33.18543582223356" lon="-96.707225991413">
        <ele>214.8</ele>
      </trkpt>
      <trkpt lat="33.18538569845259" lon="-96.70714066363871">
        <ele>215.0</ele>
      </trkpt>
      <trkpt lat="33.18534999154508" lon="-96.70707997865975">
        <ele>215.1</ele>
      </trkpt>
      <trkpt lat="33.18536784499884" lon="-96.707062125206">
        <ele>215.0</ele>
      </trkpt>
      <trkpt lat="33.18541335873306" lon="-96.70701661147177">
        <ele>215.0</ele>
      </trkpt>
      <trkpt lat="33.18543263711035" lon="-96.70699724927545">
        <ele>215.0</ele>
      </trkpt>
      <trkpt lat="33.18545996211469" lon="-96.7069699242711">
        <ele>215.0</ele>
      </trkpt>
      <trkpt lat="33.185659954324365" lon="-96.70681997202337">
        <ele>214.9</ele>
      </trkpt>
      <trkpt lat="33.18572994321585" lon="-96.70678954571486">
        <ele>214.7</ele>
      </trkpt>
      <trkpt lat="33.18581284023821" lon="-96.70675358735025">
        <ele>214.5</ele>
      </trkpt>
      <trkpt lat="33.185937060043216" lon="-96.70669969171286">
        <ele>214.0</ele>
      </trkpt>
      <trkpt lat="33.18601995706558" lon="-96.70666373334825">
        <ele>214.0</ele>
      </trkpt>
      <trkpt lat="33.18606136366725" lon="-96.70664579607546">
        <ele>214.0</ele>
      </trkpt>
      <trkpt lat="33.1861899420619" lon="-96.70658997260034">
        <ele>214.0</ele>
      </trkpt>
      <trkpt lat="33.18622883409262" lon="-96.70659776777029">
        <ele>213.9</ele>
      </trkpt>
      <trkpt lat="33.186316676437855" lon="-96.70661528594792">
        <ele>213.6</ele>
      </trkpt>
      <trkpt lat="33.18633997812867" lon="-96.7066199798137">
        <ele>213.5</ele>
      </trkpt>
      <trkpt lat="33.186479955911636" lon="-96.70668996870518">
        <ele>212.4</ele>
      </trkpt>
      <trkpt lat="33.18648054264486" lon="-96.70669072307646">
        <ele>212.4</ele>
      </trkpt>
      <trkpt lat="33.18654089234769" lon="-96.70676750130951">
        <ele>211.2</ele>
      </trkpt>
      <trkpt lat="33.18657106719911" lon="-96.70680589042604">
        <ele>210.2</ele>
      </trkpt>
      <trkpt lat="33.186631416901946" lon="-96.70688258484006">
        <ele>208.1</ele>
      </trkpt>
      <trkpt lat="33.18669176660478" lon="-96.70695936307311">
        <ele>206.9</ele>
      </trkpt>
      <trkpt lat="33.186752116307616" lon="-96.70703614130616">
        <ele>206.2</ele>
      </trkpt>
      <trkpt lat="33.18681305274367" lon="-96.7071136739105">
        <ele>206.2</ele>
      </trkpt>
      <trkpt lat="33.18699410185218" lon="-96.70734392479062">
        <ele>208.8</ele>
      </trkpt>
      <trkpt lat="33.18720524199307" lon="-96.70761256478727">
        <ele>213.0</ele>
      </trkpt>
      <trkpt lat="33.187296437099576" lon="-96.70772848650813">
        <ele>213.4</ele>
      </trkpt>
      <trkpt lat="33.18744722753763" lon="-96.70792043209076">
        <ele>214.1</ele>
      </trkpt>
      <trkpt lat="33.187535321339965" lon="-96.70803241431713">
        <ele>214.5</ele>
      </trkpt>
      <trkpt lat="33.187653506174684" lon="-96.70818278566003">
        <ele>215.0</ele>
      </trkpt>
      <trkpt lat="33.18771259859204" lon="-96.70825797133148">
        <ele>215.3</ele>
      </trkpt>
      <trkpt lat="33.187771774828434" lon="-96.70833315700293">
        <ele>215.6</ele>
      </trkpt>
      <trkpt lat="33.18783991970122" lon="-96.70841999351978">
        <ele>215.9</ele>
      </trkpt>
      <trkpt lat="33.18788258358836" lon="-96.70849082060158">
        <ele>216.1</ele>
      </trkpt>
      <trkpt lat="33.18800864741206" lon="-96.70870011672378">
        <ele>216.9</ele>
      </trkpt>
      <trkpt lat="33.18816153332591" lon="-96.70895400457084">
        <ele>217.8</ele>
      </trkpt>
      <trkpt lat="33.18821249529719" lon="-96.70903857797384">
        <ele>218.3</ele>
      </trkpt>
      <trkpt lat="33.18826345726848" lon="-96.70912323519588">
        <ele>218.8</ele>
      </trkpt>
      <trkpt lat="33.18836638703942" lon="-96.70929414220154">
        <ele>219.8</ele>
      </trkpt>
      <trkpt lat="33.18839999847114" lon="-96.70934996567667">
        <ele>220.1</ele>
      </trkpt>
      <trkpt lat="33.188389940187335" lon="-96.70934996567667">
        <ele>220.1</ele>
      </trkpt>
      <trkpt lat="33.18845112808049" lon="-96.7093069665134">
        <ele>220.1</ele>
      </trkpt>
      <trkpt lat="33.18864273838699" lon="-96.70917260460556">
        <ele>219.6</ele>
      </trkpt>
      <trkpt lat="33.18891104310751" lon="-96.70898426324129">
        <ele>218.9</ele>
      </trkpt>
      <trkpt lat="33.18895999342203" lon="-96.70894998125732">
        <ele>218.8</ele>
      </trkpt>
      <trkpt lat="33.188988072797656" lon="-96.70893338508904">
        <ele>218.7</ele>
      </trkpt>
      <trkpt lat="33.189147831872106" lon="-96.70883934013546">
        <ele>218.4</ele>
      </trkpt>
      <trkpt lat="33.18922771140933" lon="-96.70879223383963">
        <ele>218.3</ele>
      </trkpt>
      <trkpt lat="33.18966566585004" lon="-96.70853423886001">
        <ele>218.3</ele>
      </trkpt>
      <trkpt lat="33.18968997336924" lon="-96.70851998962462">
        <ele>218.3</ele>
      </trkpt>
      <trkpt lat="33.18989994004369" lon="-96.70841999351978">
        <ele>217.9</ele>
      </trkpt>
      <trkpt lat="33.18991335108876" lon="-96.70841504819691">
        <ele>217.9</ele>
      </trkpt>
      <trkpt lat="33.190125580877066" lon="-96.70833684504032">
        <ele>217.6</ele>
      </trkpt>
      <trkpt lat="33.19025281816721" lon="-96.70828999020159">
        <ele>217.4</ele>
      </trkpt>
      <trkpt lat="33.190279975533485" lon="-96.70827993191779">
        <ele>217.4</ele>
      </trkpt>
      <trkpt lat="33.190424563363194" lon="-96.70823860913515">
        <ele>217.0</ele>
      </trkpt>
      <trkpt lat="33.19051123224199" lon="-96.7082138825208">
        <ele>217.0</ele>
      </trkpt>
      <trkpt lat="33.19055490195751" lon="-96.70820139348507">
        <ele>217.0</ele>
      </trkpt>
      <trkpt lat="33.19064064882696" lon="-96.70817691832781">
        <ele>217.0</ele>
      </trkpt>
      <trkpt lat="33.19081381894648" lon="-96.70812738128006">
        <ele>216.5</ele>
      </trkpt>
      <trkpt lat="33.19090040400624" lon="-96.70810265466571">
        <ele>216.1</ele>
      </trkpt>
      <trkpt lat="33.19090995937586" lon="-96.7080999724567">
        <ele>216.1</ele>
      </trkpt>
      <trkpt lat="33.190987994894385" lon="-96.70808371156454">
        <ele>216.0</ele>
      </trkpt>
      <trkpt lat="33.19116258993745" lon="-96.70804750174284">
        <ele>215.6</ele>
      </trkpt>
      <trkpt lat="33.19133802317083" lon="-96.70801104046404">
        <ele>215.1</ele>
      </trkpt>
      <trkpt lat="33.191425697878" lon="-96.70799276791513">
        <ele>214.9</ele>
      </trkpt>
      <trkpt lat="33.19155687466264" lon="-96.70796552672982">
        <ele>214.5</ele>
      </trkpt>
      <trkpt lat="33.19161353632808" lon="-96.70795379206538">
        <ele>214.4</ele>
      </trkpt>
      <trkpt lat="33.191679921001196" lon="-96.70793996192515">
        <ele>214.2</ele>
      </trkpt>
      <trkpt lat="33.191736582666636" lon="-96.70793677680194">
        <ele>214.0</ele>
      </trkpt>
      <trkpt lat="33.19179408252239" lon="-96.70793359167874">
        <ele>213.7</ele>
      </trkpt>
      <trkpt lat="33.19184529595077" lon="-96.70793074183166">
        <ele>213.3</ele>
      </trkpt>
      <trkpt lat="33.19185996428132" lon="-96.70792998746037">
        <ele>213.2</ele>
      </trkpt>
      <trkpt lat="33.19185996428132" lon="-96.70786997303367">
        <ele>213.5</ele>
      </trkpt>
      <trkpt lat="33.19182995706797" lon="-96.70778992585838">
        <ele>214.0</ele>
      </trkpt>
      <trkpt lat="33.191829370334744" lon="-96.70778430998325">
        <ele>214.0</ele>
      </trkpt>
      <trkpt lat="33.19181998260319" lon="-96.70769998803735">
        <ele>214.4</ele>
      </trkpt>
      <trkpt lat="33.19181998260319" lon="-96.70770996250212">
        <ele>214.3</ele>
      </trkpt>
      <trkpt lat="33.191812271252275" lon="-96.70749362558126">
        <ele>214.9</ele>
      </trkpt>
      <trkpt lat="33.19180992431939" lon="-96.70742992311716">
        <ele>214.9</ele>
      </trkpt>
      <trkpt lat="33.19182995706797" lon="-96.70739999972284">
        <ele>214.8</ele>
      </trkpt>
      <trkpt lat="33.1918126065284" lon="-96.7072933819145">
        <ele>214.8</ele>
      </trkpt>
      <trkpt lat="33.19179592654109" lon="-96.70719103887677">
        <ele>214.5</ele>
      </trkpt>
      <trkpt lat="33.19177916273475" lon="-96.70708769001067">
        <ele>214.1</ele>
      </trkpt>
      <trkpt lat="33.19176231510937" lon="-96.70698434114456">
        <ele>214.0</ele>
      </trkpt>
      <trkpt lat="33.191728787496686" lon="-96.70677864924073">
        <ele>214.0</ele>
      </trkpt>
      <trkpt lat="33.19171193987131" lon="-96.7066752165556">
        <ele>213.6</ele>
      </trkpt>
      <trkpt lat="33.19169517606497" lon="-96.70657186768949">
        <ele>213.3</ele>
      </trkpt>
      <trkpt lat="33.191689979285" lon="-96.7065399326384">
        <ele>213.3</ele>
      </trkpt>
      <trkpt lat="33.19162778556347" lon="-96.70637925155461">
        <ele>213.5</ele>
      </trkpt>
      <trkpt lat="33.19157221354544" lon="-96.70623583719134">
        <ele>213.1</ele>
      </trkpt>
      <trkpt lat="33.191517144441605" lon="-96.70609351247549">
        <ele>212.5</ele>
      </trkpt>
      <trkpt lat="33.19142502732575" lon="-96.70585546642542">
        <ele>211.7</ele>
      </trkpt>
      <trkpt lat="33.19140952080488" lon="-96.70581548474729">
        <ele>211.5</ele>
      </trkpt>
      <trkpt lat="33.191371047869325" lon="-96.70571599155664">
        <ele>211.2</ele>
      </trkpt>
      <trkpt lat="33.19120994769037" lon="-96.70529999770224">
        <ele>209.7</ele>
      </trkpt>
      <trkpt lat="33.19111615419388" lon="-96.70515918172896">
        <ele>209.5</ele>
      </trkpt>
      <trkpt lat="33.190989922732115" lon="-96.70496991835535">
        <ele>209.3</ele>
      </trkpt>
      <trkpt lat="33.19096142426133" lon="-96.70490068383515">
        <ele>209.2</ele>
      </trkpt>
      <trkpt lat="33.19091993384063" lon="-96.70479993335903">
        <ele>208.9</ele>
      </trkpt>
      <trkpt lat="33.19079998880625" lon="-96.70465995557606">
        <ele>208.4</ele>
      </trkpt>
      <trkpt lat="33.19068222306669" lon="-96.70449173077941">
        <ele>207.7</ele>
      </trkpt>
      <trkpt lat="33.19058993831277" lon="-96.70435996726155">
        <ele>207.3</ele>
      </trkpt>
      <trkpt lat="33.1905054487288" lon="-96.70425267890096">
        <ele>206.8</ele>
      </trkpt>
      <trkpt lat="33.19038340821862" lon="-96.70409778133035">
        <ele>205.7</ele>
      </trkpt>
      <trkpt lat="33.19032993167639" lon="-96.70402997173369">
        <ele>205.1</ele>
      </trkpt>
      <trkpt lat="33.190251560881734" lon="-96.70395721681416">
        <ele>204.8</ele>
      </trkpt>
      <trkpt lat="33.19018995389342" lon="-96.7038999684155">
        <ele>204.6</ele>
      </trkpt>
      <trkpt lat="33.19011979736388" lon="-96.70381480827928">
        <ele>203.7</ele>
      </trkpt>
      <trkpt lat="33.19005735218525" lon="-96.70373895205557">
        <ele>202.9</ele>
      </trkpt>
      <trkpt lat="33.19004997611046" lon="-96.70372998341918">
        <ele>202.8</ele>
      </trkpt>
      <trkpt lat="33.18985652178526" lon="-96.70345363207161">
        <ele>200.1</ele>
      </trkpt>
      <trkpt lat="33.18979935720563" lon="-96.70337199233472">
        <ele>199.9</ele>
      </trkpt>
      <trkpt lat="33.1897699367255" lon="-96.70332999899983">
        <ele>199.8</ele>
      </trkpt>
      <trkpt lat="33.189744371920824" lon="-96.7032884247601">
        <ele>199.7</ele>
      </trkpt>
      <trkpt lat="33.189665330573916" lon="-96.70316043309867">
        <ele>199.4</ele>
      </trkpt>
      <trkpt lat="33.18958587013185" lon="-96.70303160324693">
        <ele>199.9</ele>
      </trkpt>
      <trkpt lat="33.18947992287576" lon="-96.70285994186997">
        <ele>201.3</ele>
      </trkpt>
      <trkpt lat="33.18943541496992" lon="-96.70276832766831">
        <ele>202.3</ele>
      </trkpt>
      <trkpt lat="33.18941328674555" lon="-96.70272281393409">
        <ele>202.8</ele>
      </trkpt>
      <trkpt lat="33.18932393565774" lon="-96.70253874734044">
        <ele>204.8</ele>
      </trkpt>
      <trkpt lat="33.18930993787944" lon="-96.70250999741256">
        <ele>205.1</ele>
      </trkpt>
      <trkpt lat="33.18923408165574" lon="-96.70229625888169">
        <ele>207.2</ele>
      </trkpt>
      <trkpt lat="33.18921974860132" lon="-96.70225569047034">
        <ele>207.5</ele>
      </trkpt>
      <trkpt lat="33.18919996730983" lon="-96.70219995081425">
        <ele>208.0</ele>
      </trkpt>
      <trkpt lat="33.18917993456125" lon="-96.7021699436009">
        <ele>208.2</ele>
      </trkpt>
      <trkpt lat="33.18917993456125" lon="-96.70215996913612">
        <ele>208.3</ele>
      </trkpt>
      <trkpt lat="33.18916761316359" lon="-96.70214052312076">
        <ele>208.5</ele>
      </trkpt>
      <trkpt lat="33.18910994566977" lon="-96.70204999856651">
        <ele>209.6</ele>
      </trkpt>
      <trkpt lat="33.18908505141735" lon="-96.70195553451777">
        <ele>210.3</ele>
      </trkpt>
      <trkpt lat="33.1890584807843" lon="-96.70185511931777">
        <ele>210.7</ele>
      </trkpt>
      <trkpt lat="33.1889910902828" lon="-96.70159997418523">
        <ele>211.7</ele>
      </trkpt>
      <trkpt lat="33.188969967886806" lon="-96.70151992700994">
        <ele>212.0</ele>
      </trkpt>
      <trkpt lat="33.18889788351953" lon="-96.70136016793549">
        <ele>213.4</ele>
      </trkpt>
      <trkpt lat="33.18885530345142" lon="-96.70126553624868">
        <ele>213.8</ele>
      </trkpt>
      <trkpt lat="33.1887286528945" lon="-96.70098449103534">
        <ele>214.9</ele>
      </trkpt>
      <trkpt lat="33.18866511806846" lon="-96.700843507424">
        <ele>215.9</ele>
      </trkpt>
      <trkpt lat="33.188649946823716" lon="-96.70080997981131">
        <ele>216.2</ele>
      </trkpt>
      <trkpt lat="33.18864759989083" lon="-96.70079573057592">
        <ele>216.3</ele>
      </trkpt>
      <trkpt lat="33.18861356936395" lon="-96.70058685354888">
        <ele>217.3</ele>
      </trkpt>
      <trkpt lat="33.18857945501804" lon="-96.70037806034088">
        <ele>218.0</ele>
      </trkpt>
      <trkpt lat="33.18856998346746" lon="-96.7003199737519">
        <ele>218.2</ele>
      </trkpt>
      <trkpt lat="33.18845615722239" lon="-96.69997857883573">
        <ele>219.4</ele>
      </trkpt>
      <trkpt lat="33.18844995461404" lon="-96.69995997101068">
        <ele>219.5</ele>
      </trkpt>
      <trkpt lat="33.18844995461404" lon="-96.6998209990561">
        <ele>220.0</ele>
      </trkpt>
      <trkpt lat="33.18844995461404" lon="-96.69971354305744">
        <ele>220.0</ele>
      </trkpt>
      <trkpt lat="33.18844995461404" lon="-96.69968998990953">
        <ele>220.0</ele>
      </trkpt>
      <trkpt lat="33.188438303768635" lon="-96.69960826635361">
        <ele>220.0</ele>
      </trkpt>
      <trkpt lat="33.18842992186546" lon="-96.69954992830753">
        <ele>220.0</ele>
      </trkpt>
      <trkpt lat="33.18835314363241" lon="-96.69925111345947">
        <ele>220.0</ele>
      </trkpt>
      <trkpt lat="33.18833998404443" lon="-96.69919998385012">
        <ele>220.0</ele>
      </trkpt>
      <trkpt lat="33.18834811449051" lon="-96.69904097914696">
        <ele>220.0</ele>
      </trkpt>
      <trkpt lat="33.1883536465466" lon="-96.6989337746054">
        <ele>220.3</ele>
      </trkpt>
      <trkpt lat="33.188356244936585" lon="-96.69888222590089">
        <ele>220.4</ele>
      </trkpt>
      <trkpt lat="33.18835993297398" lon="-96.69880997389555">
        <ele>220.7</ele>
      </trkpt>
      <trkpt lat="33.188351802527905" lon="-96.69877745211124">
        <ele>220.7</ele>
      </trkpt>
      <trkpt lat="33.18832607008517" lon="-96.69867443852127">
        <ele>220.6</ele>
      </trkpt>
      <trkpt lat="33.18829991854727" lon="-96.69856991618872">
        <ele>220.5</ele>
      </trkpt>
      <trkpt lat="33.18831726908684" lon="-96.6984139289707">
        <ele>221.0</ele>
      </trkpt>
      <trkpt lat="33.18833495490253" lon="-96.69825517572463">
        <ele>221.0</ele>
      </trkpt>
      <trkpt lat="33.18833998404443" lon="-96.69820999726653">
        <ele>221.0</ele>
      </trkpt>
      <trkpt lat="33.18833629600704" lon="-96.69809659011662">
        <ele>221.0</ele>
      </trkpt>
      <trkpt lat="33.188333697617054" lon="-96.69801495037973">
        <ele>221.0</ele>
      </trkpt>
      <trkpt lat="33.18832992576063" lon="-96.69789995066822">
        <ele>221.0</ele>
      </trkpt>
      <trkpt lat="33.1883554905653" lon="-96.69781059958041">
        <ele>221.0</ele>
      </trkpt>
      <trkpt lat="33.18836999125779" lon="-96.69775997288525">
        <ele>221.0</ele>
      </trkpt>
      <trkpt lat="33.18836999125779" lon="-96.69770926237106">
        <ele>221.0</ele>
      </trkpt>
      <trkpt lat="33.18836999125779" lon="-96.6974899917841">
        <ele>220.6</ele>
      </trkpt>
      <trkpt lat="33.1883829832077" lon="-96.69740759767592">
        <ele>220.3</ele>
      </trkpt>
      <trkpt lat="33.18839999847114" lon="-96.6972999740392">
        <ele>220.0</ele>
      </trkpt>
      <trkpt lat="33.18841357715428" lon="-96.69724532403052">
        <ele>220.0</ele>
      </trkpt>
      <trkpt lat="33.18842992186546" lon="-96.69717994518578">
        <ele>220.0</ele>
      </trkpt>
      <trkpt lat="33.18843713030219" lon="-96.69698724523187">
        <ele>219.8</ele>
      </trkpt>
      <trkpt lat="33.18843998014927" lon="-96.69690996408463">
        <ele>219.5</ele>
      </trkpt>
      <trkpt lat="33.18849295377731" lon="-96.69668214395642">
        <ele>218.7</ele>
      </trkpt>
      <trkpt lat="33.18851625546813" lon="-96.69658172875643">
        <ele>218.3</ele>
      </trkpt>
      <trkpt lat="33.188539976254106" lon="-96.69647997245193">
        <ele>217.9</ele>
      </trkpt>
      <trkpt lat="33.188546765595675" lon="-96.69637746177614">
        <ele>217.6</ele>
      </trkpt>
      <trkpt lat="33.18855204619467" lon="-96.69629925861955">
        <ele>217.6</ele>
      </trkpt>
      <trkpt lat="33.188556991517544" lon="-96.69622424058616">
        <ele>217.6</ele>
      </trkpt>
      <trkpt lat="33.188559925183654" lon="-96.69617998413742">
        <ele>217.6</ele>
      </trkpt>
      <trkpt lat="33.18850938230753" lon="-96.69617269188166">
        <ele>217.7</ele>
      </trkpt>
      <trkpt lat="33.18848993629217" lon="-96.69616992585361">
        <ele>217.8</ele>
      </trkpt>
      <trkpt lat="33.18851030431688" lon="-96.69603757560253">
        <ele>217.7</ele>
      </trkpt>
      <trkpt lat="33.18852614611387" lon="-96.69593397527933">
        <ele>217.7</ele>
      </trkpt>
      <trkpt lat="33.18857383914292" lon="-96.69562325812876">
        <ele>217.7</ele>
      </trkpt>
      <trkpt lat="33.18860560655594" lon="-96.69541605748236">
        <ele>218.0</ele>
      </trkpt>
      <trkpt lat="33.18866905756295" lon="-96.69500274583697">
        <ele>218.0</ele>
      </trkpt>
      <trkpt lat="33.18873259238899" lon="-96.6945884283632">
        <ele>218.0</ele>
      </trkpt>
      <trkpt lat="33.18875991739333" lon="-96.69440997764468">
        <ele>218.0</ele>
      </trkpt>
      <trkpt lat="33.18876754492521" lon="-96.6942757833749">
        <ele>218.0</ele>
      </trkpt>
      <trkpt lat="33.18878238089383" lon="-96.69401410035789">
        <ele>218.0</ele>
      </trkpt>
      <trkpt lat="33.18878992460668" lon="-96.69387998990715">
        <ele>218.0</ele>
      </trkpt>
      <trkpt lat="33.18878598511219" lon="-96.69379323720932">
        <ele>218.0</ele>
      </trkpt>
      <trkpt lat="33.18877995014191" lon="-96.69365996494889">
        <ele>218.0</ele>
      </trkpt>
      <trkpt lat="33.18876997567713" lon="-96.69365996494889">
        <ele>218.0</ele>
      </trkpt>
      <trkpt lat="33.188669979572296" lon="-96.69366993941367">
        <ele>218.0</ele>
      </trkpt>
      <trkpt lat="33.18861055187881" lon="-96.69366759248078">
        <ele>218.0</ele>
      </trkpt>
      <trkpt lat="33.188350796699524" lon="-96.69365719892085">
        <ele>218.0</ele>
      </trkpt>
      <trkpt lat="33.18826446309686" lon="-96.69365376234055">
        <ele>218.0</ele>
      </trkpt>
      <trkpt lat="33.188091879710555" lon="-96.69364680536091">
        <ele>218.3</ele>
      </trkpt>
      <trkpt lat="33.187789879739285" lon="-96.69363473542035">
        <ele>218.7</ele>
      </trkpt>
      <trkpt lat="33.1876699347049" lon="-96.69362995773554">
        <ele>218.8</ele>
      </trkpt>
      <trkpt lat="33.187656020745635" lon="-96.69363054446876">
        <ele>218.8</ele>
      </trkpt>
      <trkpt lat="33.18743306212127" lon="-96.69363959692419">
        <ele>219.0</ele>
      </trkpt>
      <trkpt lat="33.18729467689991" lon="-96.69364529661834">
        <ele>219.0</ele>
      </trkpt>
      <trkpt lat="33.1872452236712" lon="-96.6936473082751">
        <ele>219.0</ele>
      </trkpt>
      <trkpt lat="33.18717992864549" lon="-96.69364999048412">
        <ele>219.0</ele>
      </trkpt>
      <trkpt lat="33.18717992864549" lon="-96.69361998327076">
        <ele>219.0</ele>
      </trkpt>
      <trkpt lat="33.187090745195746" lon="-96.69362735934556">
        <ele>219.0</ele>
      </trkpt>
      <trkpt lat="33.18700097501278" lon="-96.69363490305841">
        <ele>219.0</ele>
      </trkpt>
      <trkpt lat="33.18693995475769" lon="-96.69363993220031">
        <ele>219.0</ele>
      </trkpt>
      <trkpt lat="33.18682361394167" lon="-96.69366784393787">
        <ele>219.0</ele>
      </trkpt>
      <trkpt lat="33.186735436320305" lon="-96.6936890501529">
        <ele>219.0</ele>
      </trkpt>
      <trkpt lat="33.18664725869894" lon="-96.69371017254889">
        <ele>219.0</ele>
      </trkpt>
      <trkpt lat="33.186559081077576" lon="-96.69373137876391">
        <ele>219.0</ele>
      </trkpt>
      <trkpt lat="33.1861899420619" lon="-96.69381997548044">
        <ele>219.4</ele>
      </trkpt>
      <trkpt lat="33.18616362288594" lon="-96.69383187778294">
        <ele>219.4</ele>
      </trkpt>
      <trkpt lat="33.18603739142418" lon="-96.69388887472451">
        <ele>219.6</ele>
      </trkpt>
      <trkpt lat="33.18587997928262" lon="-96.6939599532634">
        <ele>219.9</ele>
      </trkpt>
      <trkpt lat="33.18586941808462" lon="-96.6939654853195">
        <ele>219.9</ele>
      </trkpt>
      <trkpt lat="33.18578710779548" lon="-96.69400890357792">
        <ele>220.0</ele>
      </trkpt>
      <trkpt lat="33.1855199765414" lon="-96.6941499710083">
        <ele>220.0</ele>
      </trkpt>
      <trkpt lat="33.185500698164105" lon="-96.69416430406272">
        <ele>220.0</ele>
      </trkpt>
      <trkpt lat="33.18530975840986" lon="-96.69430612586439">
        <ele>220.0</ele>
      </trkpt>
      <trkpt lat="33.1851951777935" lon="-96.69439120218158">
        <ele>220.0</ele>
      </trkpt>
      <trkpt lat="33.185119573026896" lon="-96.69444736093283">
        <ele>220.0</ele>
      </trkpt>
      <trkpt lat="33.185081435367465" lon="-96.69447577558458">
        <ele>220.1</ele>
      </trkpt>
      <trkpt lat="33.1848912499845" lon="-96.69461701065302">
        <ele>220.8</ele>
      </trkpt>
      <trkpt lat="33.18481991998851" lon="-96.69466998428106">
        <ele>221.0</ele>
      </trkpt>
      <trkpt lat="33.18481581285596" lon="-96.6946735046804">
        <ele>221.0</ele>
      </trkpt>
      <trkpt lat="33.18474255502224" lon="-96.69473586603999">
        <ele>221.0</ele>
      </trkpt>
      <trkpt lat="33.18459687754512" lon="-96.694860085845">
        <ele>221.0</ele>
      </trkpt>
      <trkpt lat="33.1845236197114" lon="-96.69492244720459">
        <ele>221.1</ele>
      </trkpt>
      <trkpt lat="33.184305438771844" lon="-96.69510844163597">
        <ele>221.9</ele>
      </trkpt>
      <trkpt lat="33.184232264757156" lon="-96.69517080299556">
        <ele>222.0</ele>
      </trkpt>
      <trkpt lat="33.18415976129472" lon="-96.69523257762194">
        <ele>222.0</ele>
      </trkpt>
      <trkpt lat="33.18397745490074" lon="-96.6953878942877">
        <ele>222.0</ele>
      </trkpt>
      <trkpt lat="33.18379514850676" lon="-96.6955432947725">
        <ele>222.0</ele>
      </trkpt>
      <trkpt lat="33.18366992287338" lon="-96.69564999639988">
        <ele>222.0</ele>
      </trkpt>
      <trkpt lat="33.18369993008673" lon="-96.69569995254278">
        <ele>222.0</ele>
      </trkpt>
      <trkpt lat="33.18357084877789" lon="-96.69580514542758">
        <ele>222.0</ele>
      </trkpt>
      <trkpt lat="33.183463057503104" lon="-96.69589298777282">
        <ele>222.0</ele>
      </trkpt>
      <trkpt lat="33.18342994898558" lon="-96.69591997750103">
        <ele>222.0</ele>
      </trkpt>
      <trkpt lat="33.183309668675065" lon="-96.6959891282022">
        <ele>222.0</ele>
      </trkpt>
      <trkpt lat="33.1831541005522" lon="-96.69607856310904">
        <ele>222.0</ele>
      </trkpt>
      <trkpt lat="33.18302996456623" lon="-96.69614997692406">
        <ele>222.0</ele>
      </trkpt>
      <trkpt lat="33.18291739560664" lon="-96.69620932079852">
        <ele>222.0</ele>
      </trkpt>
      <trkpt lat="33.18279895931482" lon="-96.69627184979618">
        <ele>222.3</ele>
      </trkpt>
      <trkpt lat="33.18266996182501" lon="-96.69633999466896">
        <ele>222.8</ele>
      </trkpt>
      <trkpt lat="33.18216495215893" lon="-96.6965419985354">
        <ele>223.6</ele>
      </trkpt>
      <trkpt lat="33.18190997466445" lon="-96.69664392247796">
        <ele>224.5</ele>
      </trkpt>
      <trkpt lat="33.18181014619768" lon="-96.69668390415609">
        <ele>224.7</ele>
      </trkpt>
      <trkpt lat="33.18166991695762" lon="-96.6967399790883">
        <ele>224.9</ele>
      </trkpt>
      <trkpt lat="33.18152549676597" lon="-96.69679496437311">
        <ele>225.0</ele>
      </trkpt>
      <trkpt lat="33.18145995028317" lon="-96.69681994244456">
        <ele>225.0</ele>
      </trkpt>
      <trkpt lat="33.181442180648446" lon="-96.69683159328997">
        <ele>225.0</ele>
      </trkpt>
      <trkpt lat="33.181323911994696" lon="-96.69690904207528">
        <ele>225.0</ele>
      </trkpt>
      <trkpt lat="33.1811267696321" lon="-96.69703820720315">
        <ele>225.0</ele>
      </trkpt>
      <trkpt lat="33.18100933916867" lon="-96.6971152368933">
        <ele>225.0</ele>
      </trkpt>
      <trkpt lat="33.1808799225837" lon="-96.69719997793436">
        <ele>225.0</ele>
      </trkpt>
      <trkpt lat="33.18084857426584" lon="-96.69722503982484">
        <ele>225.0</ele>
      </trkpt>
      <trkpt lat="33.180738016963005" lon="-96.69731355272233">
        <ele>225.0</ele>
      </trkpt>
      <trkpt lat="33.18072997033596" lon="-96.69731992296875">
        <ele>225.0</ele>
      </trkpt>
      <trkpt lat="33.18059326149523" lon="-96.69743559323251">
        <ele>225.0</ele>
      </trkpt>
      <trkpt lat="33.18048463203013" lon="-96.6975275427103">
        <ele>225.0</ele>
      </trkpt>
      <trkpt lat="33.18019545637071" lon="-96.69777221046388">
        <ele>225.0</ele>
      </trkpt>
      <trkpt lat="33.18007995374501" lon="-96.69786994345486">
        <ele>225.0</ele>
      </trkpt>
      <trkpt lat="33.18000929430127" lon="-96.69791612774134">
        <ele>225.0</ele>
      </trkpt>
      <trkpt lat="33.17977577447891" lon="-96.69806884601712">
        <ele>225.0</ele>
      </trkpt>
      <trkpt lat="33.179559940472245" lon="-96.69820999726653">
        <ele>225.0</ele>
      </trkpt>
      <trkpt lat="33.17950017750263" lon="-96.69823807664216">
        <ele>225.0</ele>
      </trkpt>
      <trkpt lat="33.17925240844488" lon="-96.69835441745818">
        <ele>225.0</ele>
      </trkpt>
      <trkpt lat="33.1790875364095" lon="-96.69843186624348">
        <ele>225.0</ele>
      </trkpt>
      <trkpt lat="33.17896365188062" lon="-96.69849003665149">
        <ele>225.0</ele>
      </trkpt>
      <trkpt lat="33.17889994941652" lon="-96.69851996004581">
        <ele>225.0</ele>
      </trkpt>
      <trkpt lat="33.17848755978048" lon="-96.69860830530524">
        <ele>225.0</ele>
      </trkpt>
      <trkpt lat="33.178357388824224" lon="-96.6986362170428">
        <ele>225.0</ele>
      </trkpt>
      <trkpt lat="33.17833995446563" lon="-96.69863998889923">
        <ele>225.0</ele>
      </trkpt>
      <trkpt lat="33.1783499289304" lon="-96.69863998889923">
        <ele>225.0</ele>
      </trkpt>
      <trkpt lat="33.17831547930837" lon="-96.69864853844047">
        <ele>225.0</ele>
      </trkpt>
      <trkpt lat="33.178205424919724" lon="-96.6986761149019">
        <ele>225.0</ele>
      </trkpt>
      <trkpt lat="33.17814993672073" lon="-96.69868994504213">
        <ele>225.0</ele>
      </trkpt>
      <trkpt lat="33.17798280157149" lon="-96.69869556091726">
        <ele>225.0</ele>
      </trkpt>
      <trkpt lat="33.17775808274746" lon="-96.69870302081108">
        <ele>225.0</ele>
      </trkpt>
      <trkpt lat="33.17757912911475" lon="-96.69870897196233">
        <ele>225.0</ele>
      </trkpt>
      <trkpt lat="33.17754996009171" lon="-96.69870997779071">
        <ele>225.0</ele>
      </trkpt>
      <trkpt lat="33.177445186302066" lon="-96.69869338162243">
        <ele>225.0</ele>
      </trkpt>
      <trkpt lat="33.17734267562628" lon="-96.69867720454931">
        <ele>225.0</ele>
      </trkpt>
      <trkpt lat="33.17716992460191" lon="-96.698649963364">
        <ele>225.5</ele>
      </trkpt>
    </trkseg>
  </trk>
</gpx>
