<?xml version="1.0" encoding="UTF-8"?>
<gpx creator="Garmin Connect" version="1.1"
  xsi:schemaLocation="http://www.topografix.com/GPX/1/1 http://www.topografix.com/GPX/11.xsd"
  xmlns:ns3="http://www.garmin.com/xmlschemas/TrackPointExtension/v1"
  xmlns="http://www.topografix.com/GPX/1/1"
  xmlns:xsi="http://www.w3.org/2001/XMLSchema-instance" xmlns:ns2="http://www.garmin.com/xmlschemas/GpxExtensions/v3">
  <metadata>
    <name>MRC - Stix - Towne Lake Loop</name>
    <link href="connect.garmin.com">
      <text>Garmin Connect</text>
    </link>
    <time>2025-12-29T01:38:56.000Z</time>
  </metadata>
  <trk>
    <name>MRC - Stix - Towne Lake Loop</name>
    <trkseg>
      <trkpt lat="33.17897136323154" lon="-96.62271193228662">
        <ele>166.38</ele>
      </trkpt>
      <trkpt lat="33.17901134490967" lon="-96.62293195724487">
        <ele>166.18</ele>
      </trkpt>
      <trkpt lat="33.17898267880082" lon="-96.62321853451431">
        <ele>165.87</ele>
      </trkpt>
      <trkpt lat="33.178954012691975" lon="-96.62350511178374">
        <ele>165.67</ele>
      </trkpt>
      <trkpt lat="33.17892551422119" lon="-96.62379026412964">
        <ele>165.51</ele>
      </trkpt>
      <trkpt lat="33.17896842956543" lon="-96.62400484085083">
        <ele>165.43</ele>
      </trkpt>
      <trkpt lat="33.17896842956543" lon="-96.62428379058838">
        <ele>165.23</ele>
      </trkpt>
      <trkpt lat="33.17901134490967" lon="-96.62436962127686">
        <ele>165.16</ele>
      </trkpt>
      <trkpt lat="33.17922592163086" lon="-96.62451982498169">
        <ele>165.14</ele>
      </trkpt>
      <trkpt lat="33.17924737930298" lon="-96.62462711334229">
        <ele>165.16</ele>
      </trkpt>
      <trkpt lat="33.17944049835205" lon="-96.62467002868652">
        <ele>165.2</ele>
      </trkpt>
      <trkpt lat="33.17969807423651" lon="-96.62451982498169">
        <ele>165.28</ele>
      </trkpt>
      <trkpt lat="33.17984785884619" lon="-96.6244448069483">
        <ele>165.38</ele>
      </trkpt>
      <trkpt lat="33.17999839782715" lon="-96.62436962127686">
        <ele>165.54</ele>
      </trkpt>
      <trkpt lat="33.18021297454834" lon="-96.6243052482605">
        <ele>165.68</ele>
      </trkpt>
      <trkpt lat="33.18036284297705" lon="-96.62440155632794">
        <ele>165.83</ele>
      </trkpt>
      <trkpt lat="33.18051338195801" lon="-96.62449836730957">
        <ele>165.95</ele>
      </trkpt>
      <trkpt lat="33.1806206703186" lon="-96.62462711334229">
        <ele>166.02</ele>
      </trkpt>
      <trkpt lat="33.18068504333496" lon="-96.62473440170288">
        <ele>166.12</ele>
      </trkpt>
      <trkpt lat="33.18073868751526" lon="-96.62491695955396">
        <ele>166.19</ele>
      </trkpt>
      <trkpt lat="33.18079233169556" lon="-96.6250991821289">
        <ele>166.19</ele>
      </trkpt>
      <trkpt lat="33.18095309659839" lon="-96.62525994703174">
        <ele>166.2</ele>
      </trkpt>
      <trkpt lat="33.181114196777344" lon="-96.6254210472107">
        <ele>166.25</ele>
      </trkpt>
      <trkpt lat="33.18120002746582" lon="-96.62569999694824">
        <ele>166.15</ele>
      </trkpt>
      <trkpt lat="33.18126440048218" lon="-96.62582874298096">
        <ele>166.1</ele>
      </trkpt>
      <trkpt lat="33.18143606185913" lon="-96.62597894668579">
        <ele>166.01</ele>
      </trkpt>
      <trkpt lat="33.18154335021973" lon="-96.62600040435791">
        <ele>165.94</ele>
      </trkpt>
      <trkpt lat="33.18177938461304" lon="-96.6262149810791">
        <ele>165.85</ele>
      </trkpt>
      <trkpt lat="33.18197208456695" lon="-96.6263220179826">
        <ele>165.75</ele>
      </trkpt>
      <trkpt lat="33.18216562271118" lon="-96.6264295578003">
        <ele>165.65</ele>
      </trkpt>
      <trkpt lat="33.182358741760254" lon="-96.6266655921936">
        <ele>165.54</ele>
      </trkpt>
      <trkpt lat="33.18246603012085" lon="-96.62684798240662">
        <ele>165.39</ele>
      </trkpt>
      <trkpt lat="33.182573318481445" lon="-96.62703037261963">
        <ele>165.23</ele>
      </trkpt>
      <trkpt lat="33.18270206451416" lon="-96.62728794850409">
        <ele>165.13</ele>
      </trkpt>
      <trkpt lat="33.182830810546875" lon="-96.62754535675049">
        <ele>165.05</ele>
      </trkpt>
      <trkpt lat="33.18294891156256" lon="-96.62788901478052">
        <ele>164.98</ele>
      </trkpt>
      <trkpt lat="33.183066844940186" lon="-96.6282320022583">
        <ele>164.94</ele>
      </trkpt>
      <trkpt lat="33.183088302612305" lon="-96.62840366363525">
        <ele>164.92</ele>
      </trkpt>
      <trkpt lat="33.183066844940186" lon="-96.62851095199585">
        <ele>164.92</ele>
      </trkpt>
      <trkpt lat="33.182980846613646" lon="-96.62874723784626">
        <ele>164.94</ele>
      </trkpt>
      <trkpt lat="33.18289518356323" lon="-96.62898302078247">
        <ele>164.98</ele>
      </trkpt>
      <trkpt lat="33.18298101425171" lon="-96.62930488586426">
        <ele>165.05</ele>
      </trkpt>
      <trkpt lat="33.183088302612305" lon="-96.62949800491333">
        <ele>165.14</ele>
      </trkpt>
      <trkpt lat="33.18330271169543" lon="-96.62973387166858">
        <ele>165.24</ele>
      </trkpt>
      <trkpt lat="33.18351712077856" lon="-96.62996973842382">
        <ele>165.45</ele>
      </trkpt>
      <trkpt lat="33.18373203277588" lon="-96.63020610809326">
        <ele>165.59</ele>
      </trkpt>
      <trkpt lat="33.183839321136475" lon="-96.63022756576538">
        <ele>165.73</ele>
      </trkpt>
      <trkpt lat="33.18392515182495" lon="-96.63022756576538">
        <ele>165.88</ele>
      </trkpt>
      <trkpt lat="33.184096813201904" lon="-96.63012027740479">
        <ele>166.03</ele>
      </trkpt>
      <trkpt lat="33.184332847595215" lon="-96.63018465042114">
        <ele>166.21</ele>
      </trkpt>
      <trkpt lat="33.18439722061157" lon="-96.6301417350769">
        <ele>166.38</ele>
      </trkpt>
      <trkpt lat="33.184547424316406" lon="-96.63012027740479">
        <ele>166.57</ele>
      </trkpt>
      <trkpt lat="33.18467625416815" lon="-96.6301417350769">
        <ele>166.71</ele>
      </trkpt>
      <trkpt lat="33.1847620010376" lon="-96.63031339645386">
        <ele>166.84</ele>
      </trkpt>
      <trkpt lat="33.18486928939819" lon="-96.63042068481445">
        <ele>166.96</ele>
      </trkpt>
      <trkpt lat="33.184893261641264" lon="-96.63045261986554">
        <ele>167.08</ele>
      </trkpt>
      <trkpt lat="33.18493366241455" lon="-96.63050651550293">
        <ele>167.28</ele>
      </trkpt>
      <trkpt lat="33.18499803543091" lon="-96.63063526153564">
        <ele>167.37</ele>
      </trkpt>
      <trkpt lat="33.185044806450605" lon="-96.63071321323514">
        <ele>167.47</ele>
      </trkpt>
      <trkpt lat="33.18504489026964" lon="-96.63071329705417">
        <ele>167.55</ele>
      </trkpt>
      <trkpt lat="33.18512678146362" lon="-96.63084983825684">
        <ele>167.69</ele>
      </trkpt>
      <trkpt lat="33.185105323791504" lon="-96.63106441497803">
        <ele>167.76</ele>
      </trkpt>
      <trkpt lat="33.18516969680786" lon="-96.6312575340271">
        <ele>167.81</ele>
      </trkpt>
      <trkpt lat="33.1851692777127" lon="-96.6312680952251">
        <ele>167.85</ele>
      </trkpt>
      <trkpt lat="33.1851692777127" lon="-96.63126817904413">
        <ele>167.88</ele>
      </trkpt>
      <trkpt lat="33.18515888415277" lon="-96.63155844435096">
        <ele>167.91</ele>
      </trkpt>
      <trkpt lat="33.18514823913574" lon="-96.63185834884644">
        <ele>167.92</ele>
      </trkpt>
      <trkpt lat="33.18507296964526" lon="-96.6321053635329">
        <ele>167.94</ele>
      </trkpt>
      <trkpt lat="33.18499803543091" lon="-96.63235187530518">
        <ele>167.94</ele>
      </trkpt>
      <trkpt lat="33.18501949310303" lon="-96.63241624832153">
        <ele>167.95</ele>
      </trkpt>
      <trkpt lat="33.18514823913574" lon="-96.63256645202637">
        <ele>167.96</ele>
      </trkpt>
      <trkpt lat="33.18519115447998" lon="-96.63278102874756">
        <ele>167.98</ele>
      </trkpt>
      <trkpt lat="33.18516969680786" lon="-96.63301706314087">
        <ele>168.0</ele>
      </trkpt>
      <trkpt lat="33.18519115447998" lon="-96.63314580917358">
        <ele>168.03</ele>
      </trkpt>
      <trkpt lat="33.18528771400452" lon="-96.63332828320563">
        <ele>168.07</ele>
      </trkpt>
      <trkpt lat="33.18538427352905" lon="-96.63351058959961">
        <ele>168.12</ele>
      </trkpt>
      <trkpt lat="33.18538427352905" lon="-96.6336178779602">
        <ele>168.19</ele>
      </trkpt>
      <trkpt lat="33.18538427352905" lon="-96.63370370864868">
        <ele>168.27</ele>
      </trkpt>
      <trkpt lat="33.185309087857604" lon="-96.63390772417188">
        <ele>168.36</ele>
      </trkpt>
      <trkpt lat="33.18523406982422" lon="-96.63411140441895">
        <ele>168.47</ele>
      </trkpt>
      <trkpt lat="33.18523406982422" lon="-96.63421869277954">
        <ele>168.62</ele>
      </trkpt>
      <trkpt lat="33.18527698516846" lon="-96.63441181182861">
        <ele>168.8</ele>
      </trkpt>
      <trkpt lat="33.185341358184814" lon="-96.63454055786133">
        <ele>168.93</ele>
      </trkpt>
      <trkpt lat="33.18562030792236" lon="-96.63458347320557">
        <ele>169.06</ele>
      </trkpt>
      <trkpt lat="33.1856632232666" lon="-96.6346263885498">
        <ele>169.22</ele>
      </trkpt>
      <trkpt lat="33.18568468093872" lon="-96.63492679595947">
        <ele>169.35</ele>
      </trkpt>
      <trkpt lat="33.18574905395508" lon="-96.63514137268066">
        <ele>169.45</ele>
      </trkpt>
      <trkpt lat="33.185856342315674" lon="-96.63536324165761">
        <ele>169.59</ele>
      </trkpt>
      <trkpt lat="33.1859637144953" lon="-96.63558511063457">
        <ele>169.7</ele>
      </trkpt>
      <trkpt lat="33.186070919036865" lon="-96.63580656051636">
        <ele>169.74</ele>
      </trkpt>
      <trkpt lat="33.18626403808594" lon="-96.63597822189331">
        <ele>169.82</ele>
      </trkpt>
      <trkpt lat="33.18646738305688" lon="-96.63606380112469">
        <ele>169.85</ele>
      </trkpt>
      <trkpt lat="33.1866717338562" lon="-96.63614988327026">
        <ele>169.9</ele>
      </trkpt>
      <trkpt lat="33.18690776824951" lon="-96.63638591766357">
        <ele>169.95</ele>
      </trkpt>
      <trkpt lat="33.1870898231864" lon="-96.63652514107525">
        <ele>169.95</ele>
      </trkpt>
      <trkpt lat="33.18727254867554" lon="-96.63666486740112">
        <ele>169.93</ele>
      </trkpt>
      <trkpt lat="33.187294006347656" lon="-96.6367506980896">
        <ele>169.9</ele>
      </trkpt>
      <trkpt lat="33.187294006347656" lon="-96.63679461926222">
        <ele>169.85</ele>
      </trkpt>
      <trkpt lat="33.187294006347656" lon="-96.63679478690028">
        <ele>169.8</ele>
      </trkpt>
      <trkpt lat="33.187294006347656" lon="-96.6368579864502">
        <ele>169.73</ele>
      </trkpt>
      <trkpt lat="33.18714380264282" lon="-96.63713693618774">
        <ele>169.61</ele>
      </trkpt>
      <trkpt lat="33.18694389425218" lon="-96.63725109770894">
        <ele>169.5</ele>
      </trkpt>
      <trkpt lat="33.18674398586154" lon="-96.63736534304917">
        <ele>169.44</ele>
      </trkpt>
      <trkpt lat="33.186542987823486" lon="-96.63748025894165">
        <ele>169.35</ele>
      </trkpt>
      <trkpt lat="33.18639278411865" lon="-96.63767337799072">
        <ele>169.3</ele>
      </trkpt>
      <trkpt lat="33.1862108130008" lon="-96.6377161256969">
        <ele>169.24</ele>
      </trkpt>
      <trkpt lat="33.18602800369263" lon="-96.6377592086792">
        <ele>169.13</ele>
      </trkpt>
      <trkpt lat="33.18574905395508" lon="-96.63793087005615">
        <ele>169.07</ele>
      </trkpt>
      <trkpt lat="33.18547010421753" lon="-96.63803815841675">
        <ele>169.02</ele>
      </trkpt>
      <trkpt lat="33.18525552749634" lon="-96.63805961608887">
        <ele>168.97</ele>
      </trkpt>
      <trkpt lat="33.18521269597113" lon="-96.63801670074463">
        <ele>168.93</ele>
      </trkpt>
      <trkpt lat="33.185094594955444" lon="-96.63780195638537">
        <ele>168.9</ele>
      </trkpt>
      <trkpt lat="33.18497666157782" lon="-96.63758754730225">
        <ele>168.87</ele>
      </trkpt>
      <trkpt lat="33.18486920557916" lon="-96.63737280294299">
        <ele>168.85</ele>
      </trkpt>
      <trkpt lat="33.1847620010376" lon="-96.63715839385986">
        <ele>168.82</ele>
      </trkpt>
      <trkpt lat="33.18474213592708" lon="-96.63708547130227">
        <ele>168.81</ele>
      </trkpt>
      <trkpt lat="33.18474213592708" lon="-96.63708538748324">
        <ele>168.82</ele>
      </trkpt>
      <trkpt lat="33.18474205210805" lon="-96.63708538748324">
        <ele>168.83</ele>
      </trkpt>
      <trkpt lat="33.184687569737434" lon="-96.63688556291163">
        <ele>168.83</ele>
      </trkpt>
      <trkpt lat="33.18463325500488" lon="-96.63668632507324">
        <ele>168.89</ele>
      </trkpt>
      <trkpt lat="33.18448321893811" lon="-96.63656847551465">
        <ele>168.9</ele>
      </trkpt>
      <trkpt lat="33.184332847595215" lon="-96.63645029067993">
        <ele>168.94</ele>
      </trkpt>
      <trkpt lat="33.18424701690674" lon="-96.6363000869751">
        <ele>168.95</ele>
      </trkpt>
      <trkpt lat="33.18416110239923" lon="-96.63605659268796">
        <ele>168.95</ele>
      </trkpt>
      <trkpt lat="33.18407518789172" lon="-96.63581309840083">
        <ele>169.0</ele>
      </trkpt>
      <trkpt lat="33.18398960866034" lon="-96.63557052612305">
        <ele>169.0</ele>
      </trkpt>
      <trkpt lat="33.18398952484131" lon="-96.63557052612305">
        <ele>169.0</ele>
      </trkpt>
      <trkpt lat="33.18388215266168" lon="-96.63533424027264">
        <ele>168.95</ele>
      </trkpt>
      <trkpt lat="33.18377494812012" lon="-96.63509845733643">
        <ele>168.94</ele>
      </trkpt>
      <trkpt lat="33.18373203277588" lon="-96.63494825363159">
        <ele>168.9</ele>
      </trkpt>
      <trkpt lat="33.18373203277588" lon="-96.634840965271">
        <ele>168.84</ele>
      </trkpt>
      <trkpt lat="33.183796405792236" lon="-96.6347336769104">
        <ele>168.75</ele>
      </trkpt>
      <trkpt lat="33.183860778808594" lon="-96.63469076156616">
        <ele>168.65</ele>
      </trkpt>
      <trkpt lat="33.184053897857666" lon="-96.6346263885498">
        <ele>168.54</ele>
      </trkpt>
      <trkpt lat="33.184096813201904" lon="-96.63451910018921">
        <ele>168.4</ele>
      </trkpt>
      <trkpt lat="33.18390369415283" lon="-96.63430452346802">
        <ele>168.17</ele>
      </trkpt>
      <trkpt lat="33.183860778808594" lon="-96.63419723510742">
        <ele>168.02</ele>
      </trkpt>
      <trkpt lat="33.18384736776352" lon="-96.63394401781261">
        <ele>167.86</ele>
      </trkpt>
      <trkpt lat="33.18384745158255" lon="-96.63394418545067">
        <ele>167.71</ele>
      </trkpt>
      <trkpt lat="33.183839321136475" lon="-96.63378953933716">
        <ele>167.52</ele>
      </trkpt>
      <trkpt lat="33.18392515182495" lon="-96.63344621658325">
        <ele>167.35</ele>
      </trkpt>
      <trkpt lat="33.18392515182495" lon="-96.63329601287842">
        <ele>167.19</ele>
      </trkpt>
      <trkpt lat="33.18401106633246" lon="-96.63297364488244">
        <ele>167.05</ele>
      </trkpt>
      <trkpt lat="33.184096813201904" lon="-96.63265228271484">
        <ele>167.0</ele>
      </trkpt>
      <trkpt lat="33.18426847457886" lon="-96.63243770599365">
        <ele>166.99</ele>
      </trkpt>
      <trkpt lat="33.184332847595215" lon="-96.6322657931596">
        <ele>166.95</ele>
      </trkpt>
      <trkpt lat="33.18439722061157" lon="-96.63209438323975">
        <ele>166.92</ele>
      </trkpt>
      <trkpt lat="33.1844509486109" lon="-96.631814930588">
        <ele>166.91</ele>
      </trkpt>
      <trkpt lat="33.18450450897217" lon="-96.63153648376465">
        <ele>166.9</ele>
      </trkpt>
      <trkpt lat="33.18450450897217" lon="-96.63122559897602">
        <ele>166.9</ele>
      </trkpt>
      <trkpt lat="33.18450450897217" lon="-96.63091479800642">
        <ele>166.9</ele>
      </trkpt>
      <trkpt lat="33.184504425153136" lon="-96.63060558959842">
        <ele>166.88</ele>
      </trkpt>
      <trkpt lat="33.18450450897217" lon="-96.63060575723648">
        <ele>166.88</ele>
      </trkpt>
      <trkpt lat="33.18450450897217" lon="-96.63057088851929">
        <ele>166.87</ele>
      </trkpt>
      <trkpt lat="33.184611797332764" lon="-96.63050651550293">
        <ele>166.86</ele>
      </trkpt>
      <trkpt lat="33.184826374053955" lon="-96.63048505783081">
        <ele>166.83</ele>
      </trkpt>
      <trkpt lat="33.18486928939819" lon="-96.63042068481445">
        <ele>166.96</ele>
      </trkpt>
      <trkpt lat="33.1847620010376" lon="-96.63031339645386">
        <ele>166.84</ele>
      </trkpt>
      <trkpt lat="33.18467625416815" lon="-96.6301417350769">
        <ele>166.71</ele>
      </trkpt>
      <trkpt lat="33.184547424316406" lon="-96.63012027740479">
        <ele>166.57</ele>
      </trkpt>
      <trkpt lat="33.18439722061157" lon="-96.6301417350769">
        <ele>166.38</ele>
      </trkpt>
      <trkpt lat="33.184332847595215" lon="-96.63018465042114">
        <ele>166.21</ele>
      </trkpt>
      <trkpt lat="33.184096813201904" lon="-96.63012027740479">
        <ele>166.03</ele>
      </trkpt>
      <trkpt lat="33.18392515182495" lon="-96.63022756576538">
        <ele>165.88</ele>
      </trkpt>
      <trkpt lat="33.183839321136475" lon="-96.63022756576538">
        <ele>165.73</ele>
      </trkpt>
      <trkpt lat="33.18373203277588" lon="-96.63020610809326">
        <ele>165.59</ele>
      </trkpt>
      <trkpt lat="33.18351753987372" lon="-96.62997015751898">
        <ele>165.54</ele>
      </trkpt>
      <trkpt lat="33.18330313079059" lon="-96.62973429076374">
        <ele>165.34</ele>
      </trkpt>
      <trkpt lat="33.183088302612305" lon="-96.62949800491333">
        <ele>165.14</ele>
      </trkpt>
      <trkpt lat="33.18298101425171" lon="-96.62930488586426">
        <ele>165.05</ele>
      </trkpt>
      <trkpt lat="33.18289518356323" lon="-96.62898302078247">
        <ele>164.98</ele>
      </trkpt>
      <trkpt lat="33.18298109807074" lon="-96.62874665111303">
        <ele>165.0</ele>
      </trkpt>
      <trkpt lat="33.183066844940186" lon="-96.62851095199585">
        <ele>164.92</ele>
      </trkpt>
      <trkpt lat="33.183088302612305" lon="-96.62840366363525">
        <ele>164.92</ele>
      </trkpt>
      <trkpt lat="33.183066844940186" lon="-96.6282320022583">
        <ele>164.94</ele>
      </trkpt>
      <trkpt lat="33.18294866010547" lon="-96.62788826040924">
        <ele>165.01</ele>
      </trkpt>
      <trkpt lat="33.182830810546875" lon="-96.62754535675049">
        <ele>165.05</ele>
      </trkpt>
      <trkpt lat="33.18270198069513" lon="-96.627287697047">
        <ele>165.15</ele>
      </trkpt>
      <trkpt lat="33.182573318481445" lon="-96.62703037261963">
        <ele>165.23</ele>
      </trkpt>
      <trkpt lat="33.18246594630182" lon="-96.62684789858758">
        <ele>165.4</ele>
      </trkpt>
      <trkpt lat="33.182358741760254" lon="-96.6266655921936">
        <ele>165.54</ele>
      </trkpt>
      <trkpt lat="33.18216562271118" lon="-96.6264295578003">
        <ele>165.65</ele>
      </trkpt>
      <trkpt lat="33.181972838938236" lon="-96.62632243707776">
        <ele>165.74</ele>
      </trkpt>
      <trkpt lat="33.18177938461304" lon="-96.6262149810791">
        <ele>165.85</ele>
      </trkpt>
      <trkpt lat="33.18154335021973" lon="-96.62600040435791">
        <ele>165.94</ele>
      </trkpt>
      <trkpt lat="33.18143606185913" lon="-96.62597894668579">
        <ele>166.01</ele>
      </trkpt>
      <trkpt lat="33.18126440048218" lon="-96.62582874298096">
        <ele>166.1</ele>
      </trkpt>
      <trkpt lat="33.18120002746582" lon="-96.62569999694824">
        <ele>166.15</ele>
      </trkpt>
      <trkpt lat="33.181114196777344" lon="-96.6254210472107">
        <ele>166.25</ele>
      </trkpt>
      <trkpt lat="33.18095334805548" lon="-96.62526019848883">
        <ele>166.19</ele>
      </trkpt>
      <trkpt lat="33.18079233169556" lon="-96.6250991821289">
        <ele>166.19</ele>
      </trkpt>
      <trkpt lat="33.18073860369623" lon="-96.6249165404588">
        <ele>166.18</ele>
      </trkpt>
      <trkpt lat="33.18068504333496" lon="-96.62473440170288">
        <ele>166.12</ele>
      </trkpt>
      <trkpt lat="33.1806206703186" lon="-96.62462711334229">
        <ele>166.02</ele>
      </trkpt>
      <trkpt lat="33.18051338195801" lon="-96.62449836730957">
        <ele>165.95</ele>
      </trkpt>
      <trkpt lat="33.18036342971027" lon="-96.6244019754231">
        <ele>165.82</ele>
      </trkpt>
      <trkpt lat="33.18021297454834" lon="-96.6243052482605">
        <ele>165.68</ele>
      </trkpt>
      <trkpt lat="33.17999839782715" lon="-96.62436962127686">
        <ele>165.54</ele>
      </trkpt>
      <trkpt lat="33.17984852939844" lon="-96.62444455549121">
        <ele>165.38</ele>
      </trkpt>
      <trkpt lat="33.17969807423651" lon="-96.62451982498169">
        <ele>165.28</ele>
      </trkpt>
      <trkpt lat="33.17944049835205" lon="-96.62467002868652">
        <ele>165.2</ele>
      </trkpt>
      <trkpt lat="33.17924737930298" lon="-96.62462711334229">
        <ele>165.16</ele>
      </trkpt>
      <trkpt lat="33.17922592163086" lon="-96.62451982498169">
        <ele>165.14</ele>
      </trkpt>
      <trkpt lat="33.17901134490967" lon="-96.62436962127686">
        <ele>165.16</ele>
      </trkpt>
      <trkpt lat="33.17896842956543" lon="-96.62428379058838">
        <ele>165.23</ele>
      </trkpt>
      <trkpt lat="33.17896842956543" lon="-96.62400484085083">
        <ele>165.43</ele>
      </trkpt>
      <trkpt lat="33.17892551422119" lon="-96.62379026412964">
        <ele>165.51</ele>
      </trkpt>
      <trkpt lat="33.178954096511006" lon="-96.62350360304117">
        <ele>165.67</ele>
      </trkpt>
      <trkpt lat="33.17898276261985" lon="-96.62321702577174">
        <ele>165.87</ele>
      </trkpt>
      <trkpt lat="33.17901134490967" lon="-96.62293195724487">
        <ele>166.18</ele>
      </trkpt>
      <trkpt lat="33.178969603031874" lon="-96.62270229309797">
        <ele>166.38</ele>
      </trkpt>
    </trkseg>
  </trk>
</gpx>
