<?xml version="1.0" encoding="UTF-8"?>
<gpx creator="Garmin Connect" version="1.1"
  xsi:schemaLocation="http://www.topografix.com/GPX/1/1 http://www.topografix.com/GPX/11.xsd"
  xmlns:ns3="http://www.garmin.com/xmlschemas/TrackPointExtension/v1"
  xmlns="http://www.topografix.com/GPX/1/1"
  xmlns:xsi="http://www.w3.org/2001/XMLSchema-instance" xmlns:ns2="http://www.garmin.com/xmlschemas/GpxExtensions/v3">
  <metadata>
    <name>MRC - Stix - Towne Lake/Finch Park Loop</name>
    <link href="connect.garmin.com">
      <text>Garmin Connect</text>
    </link>
    <time>2025-12-29T01:46:40.000Z</time>
  </metadata>
  <trk>
    <name>MRC - Stix - Towne Lake/Finch Park Loop</name>
    <trkseg>
      <trkpt lat="33.17896842956543" lon="-96.62269592285156">
        <ele>166.51</ele>
      </trkpt>
      <trkpt lat="33.17901134490967" lon="-96.62293195724487">
        <ele>166.34</ele>
      </trkpt>
      <trkpt lat="33.17898267880082" lon="-96.62321853451431">
        <ele>166.06</ele>
      </trkpt>
      <trkpt lat="33.178954012691975" lon="-96.62350511178374">
        <ele>165.88</ele>
      </trkpt>
      <trkpt lat="33.17892551422119" lon="-96.62379026412964">
        <ele>165.75</ele>
      </trkpt>
      <trkpt lat="33.17896842956543" lon="-96.62400484085083">
        <ele>165.68</ele>
      </trkpt>
      <trkpt lat="33.17896842956543" lon="-96.62428379058838">
        <ele>165.49</ele>
      </trkpt>
      <trkpt lat="33.17901134490967" lon="-96.62436962127686">
        <ele>165.42</ele>
      </trkpt>
      <trkpt lat="33.17922592163086" lon="-96.62451982498169">
        <ele>165.38</ele>
      </trkpt>
      <trkpt lat="33.17924737930298" lon="-96.62462711334229">
        <ele>165.37</ele>
      </trkpt>
      <trkpt lat="33.17944049835205" lon="-96.62467002868652">
        <ele>165.38</ele>
      </trkpt>
      <trkpt lat="33.17969799041748" lon="-96.62451982498169">
        <ele>165.4</ele>
      </trkpt>
      <trkpt lat="33.17976236343384" lon="-96.6243052482605">
        <ele>165.41</ele>
      </trkpt>
      <trkpt lat="33.17969790659845" lon="-96.62410106509924">
        <ele>165.49</ele>
      </trkpt>
      <trkpt lat="33.179633701220155" lon="-96.62389755249023">
        <ele>165.59</ele>
      </trkpt>
      <trkpt lat="33.17957988940179" lon="-96.6235536430031">
        <ele>165.63</ele>
      </trkpt>
      <trkpt lat="33.17952641285956" lon="-96.62321090698242">
        <ele>165.66</ele>
      </trkpt>
      <trkpt lat="33.17952632904053" lon="-96.6230821609497">
        <ele>165.62</ele>
      </trkpt>
      <trkpt lat="33.1794620398432" lon="-96.6230821609497">
        <ele>165.52</ele>
      </trkpt>
      <trkpt lat="33.17945122718811" lon="-96.62338307127357">
        <ele>165.35</ele>
      </trkpt>
      <trkpt lat="33.17944049835205" lon="-96.62368406541646">
        <ele>165.12</ele>
      </trkpt>
      <trkpt lat="33.17942976951599" lon="-96.62398497574031">
        <ele>164.92</ele>
      </trkpt>
      <trkpt lat="33.17941912449896" lon="-96.62428379058838">
        <ele>164.64</ele>
      </trkpt>
      <trkpt lat="33.17941904067993" lon="-96.62428379058838">
        <ele>164.46</ele>
      </trkpt>
      <trkpt lat="33.17942096851766" lon="-96.62465309724212">
        <ele>164.32</ele>
      </trkpt>
      <trkpt lat="33.17942289635539" lon="-96.62502248771489">
        <ele>164.23</ele>
      </trkpt>
      <trkpt lat="33.17942490801215" lon="-96.62539179436862">
        <ele>164.2</ele>
      </trkpt>
      <trkpt lat="33.17942683584988" lon="-96.6257611848414">
        <ele>164.23</ele>
      </trkpt>
      <trkpt lat="33.17942884750664" lon="-96.62613057531416">
        <ele>164.35</ele>
      </trkpt>
      <trkpt lat="33.17943077534437" lon="-96.6264998819679">
        <ele>164.55</ele>
      </trkpt>
      <trkpt lat="33.17943278700113" lon="-96.62686927244067">
        <ele>164.84</ele>
      </trkpt>
      <trkpt lat="33.17943471483886" lon="-96.62723866291344">
        <ele>165.25</ele>
      </trkpt>
      <trkpt lat="33.179436726495624" lon="-96.62760796956718">
        <ele>165.8</ele>
      </trkpt>
      <trkpt lat="33.17943865433335" lon="-96.62797736003995">
        <ele>166.4</ele>
      </trkpt>
      <trkpt lat="33.17944058217108" lon="-96.6283392906189">
        <ele>167.12</ele>
      </trkpt>
      <trkpt lat="33.17944594658911" lon="-96.6286294721067">
        <ele>167.9</ele>
      </trkpt>
      <trkpt lat="33.17945131100714" lon="-96.6289196535945">
        <ele>168.79</ele>
      </trkpt>
      <trkpt lat="33.17945667542517" lon="-96.62920991890132">
        <ele>169.77</ele>
      </trkpt>
      <trkpt lat="33.1794620398432" lon="-96.62949800491333">
        <ele>170.83</ele>
      </trkpt>
      <trkpt lat="33.1794673204422" lon="-96.62984191440046">
        <ele>172.01</ele>
      </trkpt>
      <trkpt lat="33.17947268486023" lon="-96.63018590770662">
        <ele>173.12</ele>
      </trkpt>
      <trkpt lat="33.17947804927826" lon="-96.63052981719375">
        <ele>174.17</ele>
      </trkpt>
      <trkpt lat="33.17948341369629" lon="-96.63087129592896">
        <ele>175.15</ele>
      </trkpt>
      <trkpt lat="33.17947553470731" lon="-96.6310833580792">
        <ele>176.11</ele>
      </trkpt>
      <trkpt lat="33.17947553470731" lon="-96.63108344189823">
        <ele>177.03</ele>
      </trkpt>
      <trkpt lat="33.1794620398432" lon="-96.63145065307617">
        <ele>177.82</ele>
      </trkpt>
      <trkpt lat="33.17939749918878" lon="-96.63179447874427">
        <ele>178.72</ele>
      </trkpt>
      <trkpt lat="33.179333209991455" lon="-96.63213729858398">
        <ele>179.64</ele>
      </trkpt>
      <trkpt lat="33.179257940500975" lon="-96.63245958276093">
        <ele>180.48</ele>
      </trkpt>
      <trkpt lat="33.17918300628662" lon="-96.63278102874756">
        <ele>181.21</ele>
      </trkpt>
      <trkpt lat="33.179068425670266" lon="-96.63303868845105">
        <ele>181.7</ele>
      </trkpt>
      <trkpt lat="33.17895392887294" lon="-96.63329634815454">
        <ele>181.96</ele>
      </trkpt>
      <trkpt lat="33.178839683532715" lon="-96.63355350494385">
        <ele>182.04</ele>
      </trkpt>
      <trkpt lat="33.17866793833673" lon="-96.63382172584534">
        <ele>181.92</ele>
      </trkpt>
      <trkpt lat="33.17849636077881" lon="-96.63408994674683">
        <ele>181.63</ele>
      </trkpt>
      <trkpt lat="33.17866802215576" lon="-96.63426160812378">
        <ele>181.02</ele>
      </trkpt>
      <trkpt lat="33.178785955533385" lon="-96.63441172800958">
        <ele>180.28</ele>
      </trkpt>
      <trkpt lat="33.178904140368104" lon="-96.63456201553345">
        <ele>179.36</ele>
      </trkpt>
      <trkpt lat="33.17898997105658" lon="-96.63474448956549">
        <ele>178.38</ele>
      </trkpt>
      <trkpt lat="33.17907580174506" lon="-96.63492679595947">
        <ele>177.36</ele>
      </trkpt>
      <trkpt lat="33.179150903597474" lon="-96.63516308180988">
        <ele>176.31</ele>
      </trkpt>
      <trkpt lat="33.17922592163086" lon="-96.6353988647461">
        <ele>175.24</ele>
      </trkpt>
      <trkpt lat="33.17927956581116" lon="-96.63561369292438">
        <ele>174.22</ele>
      </trkpt>
      <trkpt lat="33.179333209991455" lon="-96.63582801818848">
        <ele>173.27</ele>
      </trkpt>
      <trkpt lat="33.17937612533569" lon="-96.63580656051636">
        <ele>172.44</ele>
      </trkpt>
      <trkpt lat="33.17939758300781" lon="-96.63606447167695">
        <ele>171.62</ele>
      </trkpt>
      <trkpt lat="33.17941904067993" lon="-96.63632154464722">
        <ele>170.96</ele>
      </trkpt>
      <trkpt lat="33.17940822802484" lon="-96.63659018464386">
        <ele>170.36</ele>
      </trkpt>
      <trkpt lat="33.17939758300781" lon="-96.6368579864502">
        <ele>169.9</ele>
      </trkpt>
      <trkpt lat="33.17933304235339" lon="-96.6370942723006">
        <ele>169.54</ele>
      </trkpt>
      <trkpt lat="33.1792688369751" lon="-96.63733005523682">
        <ele>169.26</ele>
      </trkpt>
      <trkpt lat="33.17917571403086" lon="-96.6375591326505">
        <ele>169.04</ele>
      </trkpt>
      <trkpt lat="33.17908267490566" lon="-96.63778821006417">
        <ele>168.89</ele>
      </trkpt>
      <trkpt lat="33.17898988723755" lon="-96.63801670074463">
        <ele>168.79</ele>
      </trkpt>
      <trkpt lat="33.17892551422119" lon="-96.63823127746582">
        <ele>168.75</ele>
      </trkpt>
      <trkpt lat="33.17891319282353" lon="-96.63831761106849">
        <ele>168.74</ele>
      </trkpt>
      <trkpt lat="33.17890405654907" lon="-96.63838148117065">
        <ele>168.77</ele>
      </trkpt>
      <trkpt lat="33.17894697189331" lon="-96.63848876953125">
        <ele>168.83</ele>
      </trkpt>
      <trkpt lat="33.17901134490967" lon="-96.63853168487549">
        <ele>168.9</ele>
      </trkpt>
      <trkpt lat="33.17914009094238" lon="-96.63855314254761">
        <ele>168.98</ele>
      </trkpt>
      <trkpt lat="33.17924737930298" lon="-96.63853168487549">
        <ele>169.07</ele>
      </trkpt>
      <trkpt lat="33.17952632904053" lon="-96.63840293884277">
        <ele>169.17</ele>
      </trkpt>
      <trkpt lat="33.179612243548036" lon="-96.63844585418701">
        <ele>169.26</ele>
      </trkpt>
      <trkpt lat="33.17978390492499" lon="-96.63859605789185">
        <ele>169.36</ele>
      </trkpt>
      <trkpt lat="33.179848194122314" lon="-96.63863897323608">
        <ele>169.45</ele>
      </trkpt>
      <trkpt lat="33.18001985549927" lon="-96.63859605789185">
        <ele>169.53</ele>
      </trkpt>
      <trkpt lat="33.180105686187744" lon="-96.63846731185913">
        <ele>169.62</ele>
      </trkpt>
      <trkpt lat="33.18014860153198" lon="-96.63827419281006">
        <ele>169.69</ele>
      </trkpt>
      <trkpt lat="33.18021297454834" lon="-96.6382098197937">
        <ele>169.75</ele>
      </trkpt>
      <trkpt lat="33.18040609359741" lon="-96.63812398910522">
        <ele>169.79</ele>
      </trkpt>
      <trkpt lat="33.18049192428589" lon="-96.63801670074463">
        <ele>169.88</ele>
      </trkpt>
      <trkpt lat="33.180577754974365" lon="-96.6378664970398">
        <ele>169.97</ele>
      </trkpt>
      <trkpt lat="33.18070650100708" lon="-96.63780212402344">
        <ele>170.07</ele>
      </trkpt>
      <trkpt lat="33.18094194866717" lon="-96.63790916092694">
        <ele>170.26</ele>
      </trkpt>
      <trkpt lat="33.1811785697937" lon="-96.63801670074463">
        <ele>170.35</ele>
      </trkpt>
      <trkpt lat="33.18139314651489" lon="-96.63825273513794">
        <ele>170.45</ele>
      </trkpt>
      <trkpt lat="33.18156489171088" lon="-96.63829565048218">
        <ele>170.6</ele>
      </trkpt>
      <trkpt lat="33.18171509541571" lon="-96.6383171081543">
        <ele>170.67</ele>
      </trkpt>
      <trkpt lat="33.181843757629395" lon="-96.63829565048218">
        <ele>170.71</ele>
      </trkpt>
      <trkpt lat="33.18199396133423" lon="-96.6381025314331">
        <ele>170.73</ele>
      </trkpt>
      <trkpt lat="33.182058334350586" lon="-96.63805961608887">
        <ele>170.71</ele>
      </trkpt>
      <trkpt lat="33.18233652971685" lon="-96.63799541071057">
        <ele>170.66</ele>
      </trkpt>
      <trkpt lat="33.182616233825684" lon="-96.63793087005615">
        <ele>170.59</ele>
      </trkpt>
      <trkpt lat="33.18278789520264" lon="-96.63797378540039">
        <ele>170.53</ele>
      </trkpt>
      <trkpt lat="33.18295955657959" lon="-96.63808107376099">
        <ele>170.47</ele>
      </trkpt>
      <trkpt lat="33.18315267562866" lon="-96.6381025314331">
        <ele>170.35</ele>
      </trkpt>
      <trkpt lat="33.18328142166138" lon="-96.63818836212158">
        <ele>170.2</ele>
      </trkpt>
      <trkpt lat="33.18345316685736" lon="-96.63818836212158">
        <ele>170.0</ele>
      </trkpt>
      <trkpt lat="33.18362474441528" lon="-96.63827419281006">
        <ele>169.84</ele>
      </trkpt>
      <trkpt lat="33.18362474441528" lon="-96.63823127746582">
        <ele>169.66</ele>
      </trkpt>
      <trkpt lat="33.183624828234315" lon="-96.63823127746582">
        <ele>169.47</ele>
      </trkpt>
      <trkpt lat="33.18371057510376" lon="-96.63803815841675">
        <ele>169.24</ele>
      </trkpt>
      <trkpt lat="33.18401098251343" lon="-96.63793087005615">
        <ele>168.86</ele>
      </trkpt>
      <trkpt lat="33.18420418538153" lon="-96.63795232772827">
        <ele>168.7</ele>
      </trkpt>
      <trkpt lat="33.18441809155047" lon="-96.63797370158136">
        <ele>168.61</ele>
      </trkpt>
      <trkpt lat="33.184633338823915" lon="-96.63799524307251">
        <ele>168.63</ele>
      </trkpt>
      <trkpt lat="33.18491220474243" lon="-96.63784503936768">
        <ele>168.63</ele>
      </trkpt>
      <trkpt lat="33.18493374623358" lon="-96.63782358169556">
        <ele>168.6</ele>
      </trkpt>
      <trkpt lat="33.18504095077515" lon="-96.63784503936768">
        <ele>168.59</ele>
      </trkpt>
      <trkpt lat="33.18514823913574" lon="-96.63799524307251">
        <ele>168.6</ele>
      </trkpt>
      <trkpt lat="33.18521269597113" lon="-96.63801670074463">
        <ele>168.63</ele>
      </trkpt>
      <trkpt lat="33.18525552749634" lon="-96.63805961608887">
        <ele>168.68</ele>
      </trkpt>
      <trkpt lat="33.18547010421753" lon="-96.63803815841675">
        <ele>168.74</ele>
      </trkpt>
      <trkpt lat="33.18574905395508" lon="-96.63793087005615">
        <ele>168.81</ele>
      </trkpt>
      <trkpt lat="33.18581895902753" lon="-96.63788787089288">
        <ele>168.89</ele>
      </trkpt>
      <trkpt lat="33.18602800369263" lon="-96.6377592086792">
        <ele>168.98</ele>
      </trkpt>
      <trkpt lat="33.18620989099145" lon="-96.63771637715399">
        <ele>169.12</ele>
      </trkpt>
      <trkpt lat="33.18639278411865" lon="-96.63767337799072">
        <ele>169.2</ele>
      </trkpt>
      <trkpt lat="33.186542987823486" lon="-96.63748025894165">
        <ele>169.27</ele>
      </trkpt>
      <trkpt lat="33.186742812395096" lon="-96.63736601360142">
        <ele>169.38</ele>
      </trkpt>
      <trkpt lat="33.18694272078574" lon="-96.6372517682612">
        <ele>169.46</ele>
      </trkpt>
      <trkpt lat="33.18714380264282" lon="-96.63713693618774">
        <ele>169.58</ele>
      </trkpt>
      <trkpt lat="33.187294006347656" lon="-96.6368579864502">
        <ele>169.7</ele>
      </trkpt>
      <trkpt lat="33.187294006347656" lon="-96.6367506980896">
        <ele>169.78</ele>
      </trkpt>
      <trkpt lat="33.18727254867554" lon="-96.63666486740112">
        <ele>169.83</ele>
      </trkpt>
      <trkpt lat="33.18709040991962" lon="-96.63652556017041">
        <ele>169.87</ele>
      </trkpt>
      <trkpt lat="33.18690776824951" lon="-96.63638591766357">
        <ele>169.89</ele>
      </trkpt>
      <trkpt lat="33.1866717338562" lon="-96.63614988327026">
        <ele>169.86</ele>
      </trkpt>
      <trkpt lat="33.18646830506623" lon="-96.63606422021985">
        <ele>169.83</ele>
      </trkpt>
      <trkpt lat="33.18626403808594" lon="-96.63597822189331">
        <ele>169.82</ele>
      </trkpt>
      <trkpt lat="33.186070919036865" lon="-96.63580656051636">
        <ele>169.75</ele>
      </trkpt>
      <trkpt lat="33.18596354685724" lon="-96.63558460772038">
        <ele>169.73</ele>
      </trkpt>
      <trkpt lat="33.18585617467761" lon="-96.63536273874342">
        <ele>169.63</ele>
      </trkpt>
      <trkpt lat="33.18574905395508" lon="-96.63514137268066">
        <ele>169.51</ele>
      </trkpt>
      <trkpt lat="33.18568468093872" lon="-96.63492679595947">
        <ele>169.42</ele>
      </trkpt>
      <trkpt lat="33.1856632232666" lon="-96.6346263885498">
        <ele>169.29</ele>
      </trkpt>
      <trkpt lat="33.18562030792236" lon="-96.63458347320557">
        <ele>169.14</ele>
      </trkpt>
      <trkpt lat="33.185341358184814" lon="-96.63454055786133">
        <ele>169.01</ele>
      </trkpt>
      <trkpt lat="33.18527698516846" lon="-96.63441181182861">
        <ele>168.88</ele>
      </trkpt>
      <trkpt lat="33.18523406982422" lon="-96.63421869277954">
        <ele>168.7</ele>
      </trkpt>
      <trkpt lat="33.18523406982422" lon="-96.63411140441895">
        <ele>168.54</ele>
      </trkpt>
      <trkpt lat="33.185309171676636" lon="-96.63390730507672">
        <ele>168.42</ele>
      </trkpt>
      <trkpt lat="33.18538427352905" lon="-96.63370370864868">
        <ele>168.32</ele>
      </trkpt>
      <trkpt lat="33.18538427352905" lon="-96.6336178779602">
        <ele>168.22</ele>
      </trkpt>
      <trkpt lat="33.18538427352905" lon="-96.63351058959961">
        <ele>168.13</ele>
      </trkpt>
      <trkpt lat="33.18531830795109" lon="-96.63338595069945">
        <ele>168.05</ele>
      </trkpt>
      <trkpt lat="33.18519115447998" lon="-96.63314580917358">
        <ele>167.98</ele>
      </trkpt>
      <trkpt lat="33.18516969680786" lon="-96.63301706314087">
        <ele>167.92</ele>
      </trkpt>
      <trkpt lat="33.18519115447998" lon="-96.63278102874756">
        <ele>167.87</ele>
      </trkpt>
      <trkpt lat="33.18514823913574" lon="-96.63256645202637">
        <ele>167.82</ele>
      </trkpt>
      <trkpt lat="33.18501949310303" lon="-96.63241624832153">
        <ele>167.77</ele>
      </trkpt>
      <trkpt lat="33.18499803543091" lon="-96.63235187530518">
        <ele>167.73</ele>
      </trkpt>
      <trkpt lat="33.18507322110236" lon="-96.63210477679968">
        <ele>167.68</ele>
      </trkpt>
      <trkpt lat="33.18514823913574" lon="-96.63185834884644">
        <ele>167.64</ele>
      </trkpt>
      <trkpt lat="33.1851589679718" lon="-96.63155735470355">
        <ele>167.6</ele>
      </trkpt>
      <trkpt lat="33.18516969680786" lon="-96.6312575340271">
        <ele>167.56</ele>
      </trkpt>
      <trkpt lat="33.185105323791504" lon="-96.63106441497803">
        <ele>167.52</ele>
      </trkpt>
      <trkpt lat="33.18512678146362" lon="-96.63084983825684">
        <ele>167.48</ele>
      </trkpt>
      <trkpt lat="33.18499803543091" lon="-96.63063526153564">
        <ele>167.37</ele>
      </trkpt>
      <trkpt lat="33.18493366241455" lon="-96.63050651550293">
        <ele>167.34</ele>
      </trkpt>
      <trkpt lat="33.18486928939819" lon="-96.63042068481445">
        <ele>167.32</ele>
      </trkpt>
      <trkpt lat="33.1847620010376" lon="-96.63031339645386">
        <ele>167.31</ele>
      </trkpt>
      <trkpt lat="33.18467617034912" lon="-96.6301417350769">
        <ele>167.31</ele>
      </trkpt>
      <trkpt lat="33.18471916951239" lon="-96.63003444671631">
        <ele>167.32</ele>
      </trkpt>
      <trkpt lat="33.18481044843793" lon="-96.62995607592165">
        <ele>167.33</ele>
      </trkpt>
      <trkpt lat="33.18481053225696" lon="-96.62995607592165">
        <ele>167.35</ele>
      </trkpt>
      <trkpt lat="33.18501949310303" lon="-96.62977695465088">
        <ele>167.37</ele>
      </trkpt>
      <trkpt lat="33.18519107066095" lon="-96.62956246174872">
        <ele>167.42</ele>
      </trkpt>
      <trkpt lat="33.185362815856934" lon="-96.6293478012085">
        <ele>167.49</ele>
      </trkpt>
      <trkpt lat="33.18547010421753" lon="-96.62917613983154">
        <ele>167.51</ele>
      </trkpt>
      <trkpt lat="33.18550229072571" lon="-96.62895041517913">
        <ele>167.51</ele>
      </trkpt>
      <trkpt lat="33.18553447723389" lon="-96.62872552871704">
        <ele>167.49</ele>
      </trkpt>
      <trkpt lat="33.185512935742736" lon="-96.62842453457415">
        <ele>167.47</ele>
      </trkpt>
      <trkpt lat="33.18549156188965" lon="-96.6281247138977">
        <ele>167.38</ele>
      </trkpt>
      <trkpt lat="33.185545206069946" lon="-96.62787753157318">
        <ele>167.35</ele>
      </trkpt>
      <trkpt lat="33.185598850250244" lon="-96.62763118743896">
        <ele>167.24</ele>
      </trkpt>
      <trkpt lat="33.185613099485636" lon="-96.62728006951511">
        <ele>167.17</ele>
      </trkpt>
      <trkpt lat="33.18562743254006" lon="-96.62692895159125">
        <ele>167.1</ele>
      </trkpt>
      <trkpt lat="33.18564176559448" lon="-96.62657976150513">
        <ele>167.03</ele>
      </trkpt>
      <trkpt lat="33.185641849413514" lon="-96.62657976150513">
        <ele>166.95</ele>
      </trkpt>
      <trkpt lat="33.18559876643121" lon="-96.62635403685272">
        <ele>166.87</ele>
      </trkpt>
      <trkpt lat="33.185555934906006" lon="-96.62612915039062">
        <ele>166.8</ele>
      </trkpt>
      <trkpt lat="33.185577392578125" lon="-96.62600040435791">
        <ele>166.73</ele>
      </trkpt>
      <trkpt lat="33.1856632232666" lon="-96.6258716583252">
        <ele>166.66</ele>
      </trkpt>
      <trkpt lat="33.18570613861084" lon="-96.62585020065308">
        <ele>166.6</ele>
      </trkpt>
      <trkpt lat="33.18596363067627" lon="-96.62578582763672">
        <ele>166.55</ele>
      </trkpt>
      <trkpt lat="33.18602800369263" lon="-96.62578582763672">
        <ele>166.51</ele>
      </trkpt>
      <trkpt lat="33.18613520823419" lon="-96.62564635276794">
        <ele>166.49</ele>
      </trkpt>
      <trkpt lat="33.18624258041382" lon="-96.62550687789917">
        <ele>166.49</ele>
      </trkpt>
      <trkpt lat="33.18619966506958" lon="-96.62550687789917">
        <ele>166.5</ele>
      </trkpt>
      <trkpt lat="33.18592071533203" lon="-96.62567853927612">
        <ele>166.54</ele>
      </trkpt>
      <trkpt lat="33.18596363067627" lon="-96.6260009072721">
        <ele>166.6</ele>
      </trkpt>
      <trkpt lat="33.18600654602051" lon="-96.6263222694397">
        <ele>166.72</ele>
      </trkpt>
      <trkpt lat="33.18600654602051" lon="-96.62640810012817">
        <ele>166.84</ele>
      </trkpt>
      <trkpt lat="33.186135375872254" lon="-96.62638664245605">
        <ele>167.04</ele>
      </trkpt>
      <trkpt lat="33.18637132644653" lon="-96.6263222694397">
        <ele>167.26</ele>
      </trkpt>
      <trkpt lat="33.18647869862616" lon="-96.62625789642334">
        <ele>167.5</ele>
      </trkpt>
      <trkpt lat="33.18665027618408" lon="-96.62608623504639">
        <ele>167.78</ele>
      </trkpt>
      <trkpt lat="33.1867790222168" lon="-96.62589311599731">
        <ele>168.08</ele>
      </trkpt>
      <trkpt lat="33.186971973627806" lon="-96.62611464969814">
        <ele>168.51</ele>
      </trkpt>
      <trkpt lat="33.187165008857846" lon="-96.626336267218">
        <ele>168.94</ele>
      </trkpt>
      <trkpt lat="33.187357960268855" lon="-96.62655788473785">
        <ele>169.42</ele>
      </trkpt>
      <trkpt lat="33.187550995498896" lon="-96.62677941843867">
        <ele>169.94</ele>
      </trkpt>
      <trkpt lat="33.187744030728936" lon="-96.62700103595853">
        <ele>170.49</ele>
      </trkpt>
      <trkpt lat="33.18793773651123" lon="-96.6272234916687">
        <ele>171.08</ele>
      </trkpt>
      <trkpt lat="33.18807695992291" lon="-96.62731988355517">
        <ele>171.61</ele>
      </trkpt>
      <trkpt lat="33.18821668624878" lon="-96.62741661071777">
        <ele>172.22</ele>
      </trkpt>
      <trkpt lat="33.1883383076638" lon="-96.62716607563198">
        <ele>172.9</ele>
      </trkpt>
      <trkpt lat="33.18846001289785" lon="-96.62691554054618">
        <ele>173.62</ele>
      </trkpt>
      <trkpt lat="33.188581466674805" lon="-96.6266655921936">
        <ele>174.29</ele>
      </trkpt>
      <trkpt lat="33.18868867121637" lon="-96.62652611732483">
        <ele>174.95</ele>
      </trkpt>
      <trkpt lat="33.188796043395996" lon="-96.62638664245605">
        <ele>175.68</ele>
      </trkpt>
      <trkpt lat="33.189053535461426" lon="-96.62627935409546">
        <ele>176.49</ele>
      </trkpt>
      <trkpt lat="33.18928177468479" lon="-96.62627214565873">
        <ele>177.3</ele>
      </trkpt>
      <trkpt lat="33.18951001390815" lon="-96.62626502104104">
        <ele>178.08</ele>
      </trkpt>
      <trkpt lat="33.18974026478827" lon="-96.62625789642334">
        <ele>178.85</ele>
      </trkpt>
      <trkpt lat="33.18994344212115" lon="-96.62625789642334">
        <ele>179.57</ele>
      </trkpt>
      <trkpt lat="33.1901478767395" lon="-96.62625789642334">
        <ele>180.27</ele>
      </trkpt>
      <trkpt lat="33.19013706408441" lon="-96.62591390311718">
        <ele>181.0</ele>
      </trkpt>
      <trkpt lat="33.19012633524835" lon="-96.62556990981102">
        <ele>181.67</ele>
      </trkpt>
      <trkpt lat="33.19011560641229" lon="-96.62522600032389">
        <ele>182.21</ele>
      </trkpt>
      <trkpt lat="33.190104961395264" lon="-96.62488460540771">
        <ele>182.69</ele>
      </trkpt>
      <trkpt lat="33.190105045214295" lon="-96.62488460540771">
        <ele>183.13</ele>
      </trkpt>
      <trkpt lat="33.190088868141174" lon="-96.62453524768353">
        <ele>183.51</ele>
      </trkpt>
      <trkpt lat="33.190072774887085" lon="-96.62418588995934">
        <ele>183.94</ele>
      </trkpt>
      <trkpt lat="33.190056597813964" lon="-96.62383661605418">
        <ele>184.26</ele>
      </trkpt>
      <trkpt lat="33.19004067219794" lon="-96.62348985671997">
        <ele>184.54</ele>
      </trkpt>
      <trkpt lat="33.19003522396088" lon="-96.62319422699511">
        <ele>184.69</ele>
      </trkpt>
      <trkpt lat="33.19002985954285" lon="-96.62289868108928">
        <ele>184.83</ele>
      </trkpt>
      <trkpt lat="33.19002449512482" lon="-96.62260305136442">
        <ele>184.84</ele>
      </trkpt>
      <trkpt lat="33.19001921452582" lon="-96.62230968475342">
        <ele>184.75</ele>
      </trkpt>
      <trkpt lat="33.190004797652364" lon="-96.62203014828265">
        <ele>184.57</ele>
      </trkpt>
      <trkpt lat="33.18999046459794" lon="-96.62175069563091">
        <ele>184.36</ele>
      </trkpt>
      <trkpt lat="33.18997621536255" lon="-96.62147283554077">
        <ele>184.16</ele>
      </trkpt>
      <trkpt lat="33.18997621536255" lon="-96.62136554718018">
        <ele>183.98</ele>
      </trkpt>
      <trkpt lat="33.18999767303467" lon="-96.62136554718018">
        <ele>183.82</ele>
      </trkpt>
      <trkpt lat="33.190062046051025" lon="-96.62136554718018">
        <ele>183.66</ele>
      </trkpt>
      <trkpt lat="33.19025524891913" lon="-96.62123680114746">
        <ele>183.48</ele>
      </trkpt>
      <trkpt lat="33.19044828414917" lon="-96.62132263183594">
        <ele>183.41</ele>
      </trkpt>
      <trkpt lat="33.190620029345155" lon="-96.6212797164917">
        <ele>183.23</ele>
      </trkpt>
      <trkpt lat="33.19074869155884" lon="-96.62125825881958">
        <ele>183.0</ele>
      </trkpt>
      <trkpt lat="33.19092035293579" lon="-96.62115097045898">
        <ele>182.7</ele>
      </trkpt>
      <trkpt lat="33.19094181060791" lon="-96.62108659744263">
        <ele>182.32</ele>
      </trkpt>
      <trkpt lat="33.19092043675482" lon="-96.62080764770508">
        <ele>181.77</ele>
      </trkpt>
      <trkpt lat="33.19102764129639" lon="-96.62063598632812">
        <ele>181.3</ele>
      </trkpt>
      <trkpt lat="33.191070556640625" lon="-96.62052869796753">
        <ele>180.84</ele>
      </trkpt>
      <trkpt lat="33.191049098968506" lon="-96.62044286727905">
        <ele>180.39</ele>
      </trkpt>
      <trkpt lat="33.190856063738465" lon="-96.62029266357422">
        <ele>179.89</ele>
      </trkpt>
      <trkpt lat="33.19087743759155" lon="-96.62018537521362">
        <ele>179.44</ele>
      </trkpt>
      <trkpt lat="33.190905349329114" lon="-96.62014807574451">
        <ele>179.06</ele>
      </trkpt>
      <trkpt lat="33.190905349329114" lon="-96.62014815956354">
        <ele>178.72</ele>
      </trkpt>
      <trkpt lat="33.19094181060791" lon="-96.62009954452515">
        <ele>178.4</ele>
      </trkpt>
      <trkpt lat="33.19111347198486" lon="-96.62009954452515">
        <ele>178.18</ele>
      </trkpt>
      <trkpt lat="33.19124230183661" lon="-96.62005662918091">
        <ele>177.95</ele>
      </trkpt>
      <trkpt lat="33.191349506378174" lon="-96.62003517150879">
        <ele>177.75</ele>
      </trkpt>
      <trkpt lat="33.19141387939453" lon="-96.61988496780396">
        <ele>177.55</ele>
      </trkpt>
      <trkpt lat="33.19147825241089" lon="-96.61977767944336">
        <ele>177.41</ele>
      </trkpt>
      <trkpt lat="33.19152125157416" lon="-96.61975622177124">
        <ele>177.34</ele>
      </trkpt>
      <trkpt lat="33.191542625427246" lon="-96.61973476409912">
        <ele>177.31</ele>
      </trkpt>
      <trkpt lat="33.191607082262635" lon="-96.61969184875488">
        <ele>177.33</ele>
      </trkpt>
      <trkpt lat="33.19171437062323" lon="-96.61954164505005">
        <ele>177.37</ele>
      </trkpt>
      <trkpt lat="33.19175720214844" lon="-96.61930561065674">
        <ele>177.42</ele>
      </trkpt>
      <trkpt lat="33.191800117492676" lon="-96.6192626953125">
        <ele>177.59</ele>
      </trkpt>
      <trkpt lat="33.19197186268866" lon="-96.61917686462402">
        <ele>177.86</ele>
      </trkpt>
      <trkpt lat="33.192122066393495" lon="-96.61896228790283">
        <ele>178.16</ele>
      </trkpt>
      <trkpt lat="33.19222927093506" lon="-96.61866188049316">
        <ele>178.47</ele>
      </trkpt>
      <trkpt lat="33.19246488623321" lon="-96.61851192824543">
        <ele>178.83</ele>
      </trkpt>
      <trkpt lat="33.19270142354071" lon="-96.6183614730835">
        <ele>179.19</ele>
      </trkpt>
      <trkpt lat="33.192808628082275" lon="-96.61829710006714">
        <ele>179.5</ele>
      </trkpt>
      <trkpt lat="33.19291591644287" lon="-96.61818981170654">
        <ele>179.78</ele>
      </trkpt>
      <trkpt lat="33.19310903549194" lon="-96.61812543869019">
        <ele>180.1</ele>
      </trkpt>
      <trkpt lat="33.19315195083618" lon="-96.61803960800171">
        <ele>180.25</ele>
      </trkpt>
      <trkpt lat="33.19315195083618" lon="-96.61790097132325">
        <ele>180.3</ele>
      </trkpt>
      <trkpt lat="33.19315195083618" lon="-96.61776065826416">
        <ele>180.3</ele>
      </trkpt>
      <trkpt lat="33.193066120147705" lon="-96.61773920059204">
        <ele>180.24</ele>
      </trkpt>
      <trkpt lat="33.19291591644287" lon="-96.61784648895264">
        <ele>180.09</ele>
      </trkpt>
      <trkpt lat="33.19276571273804" lon="-96.61788940429688">
        <ele>179.9</ele>
      </trkpt>
      <trkpt lat="33.192637050524354" lon="-96.61803944036365">
        <ele>179.64</ele>
      </trkpt>
      <trkpt lat="33.19250830449164" lon="-96.61818981170654">
        <ele>179.33</ele>
      </trkpt>
      <trkpt lat="33.192294146865606" lon="-96.61828611977398">
        <ele>178.97</ele>
      </trkpt>
      <trkpt lat="33.192079067230225" lon="-96.61838293075562">
        <ele>178.58</ele>
      </trkpt>
      <trkpt lat="33.19192886352539" lon="-96.61834001541138">
        <ele>178.21</ele>
      </trkpt>
      <trkpt lat="33.191800117492676" lon="-96.61823272705078">
        <ele>177.88</ele>
      </trkpt>
      <trkpt lat="33.19167145527899" lon="-96.61818981170654">
        <ele>177.53</ele>
      </trkpt>
      <trkpt lat="33.1916069984436" lon="-96.61821126937866">
        <ele>177.13</ele>
      </trkpt>
      <trkpt lat="33.19147825241089" lon="-96.61831855773926">
        <ele>176.68</ele>
      </trkpt>
      <trkpt lat="33.19124221801758" lon="-96.61840438842773">
        <ele>176.24</ele>
      </trkpt>
      <trkpt lat="33.19122084416449" lon="-96.61840438842773">
        <ele>175.85</ele>
      </trkpt>
      <trkpt lat="33.19119930267334" lon="-96.61844730377197">
        <ele>175.46</ele>
      </trkpt>
      <trkpt lat="33.191049098968506" lon="-96.61855459213257">
        <ele>175.02</ele>
      </trkpt>
      <trkpt lat="33.19087743759155" lon="-96.61861896514893">
        <ele>174.63</ele>
      </trkpt>
      <trkpt lat="33.19068440236151" lon="-96.61876916885376">
        <ele>174.28</ele>
      </trkpt>
      <trkpt lat="33.19068431854248" lon="-96.61876916885376">
        <ele>173.98</ele>
      </trkpt>
      <trkpt lat="33.1904917024076" lon="-96.618822645396">
        <ele>173.7</ele>
      </trkpt>
      <trkpt lat="33.190298080444336" lon="-96.61887645721436">
        <ele>173.46</ele>
      </trkpt>
      <trkpt lat="33.19019079208374" lon="-96.61894083023071">
        <ele>173.24</ele>
      </trkpt>
      <trkpt lat="33.19012641906738" lon="-96.61904811859131">
        <ele>173.04</ele>
      </trkpt>
      <trkpt lat="33.190105045214295" lon="-96.61917686462402">
        <ele>172.87</ele>
      </trkpt>
      <trkpt lat="33.190105045214295" lon="-96.6193699836731">
        <ele>172.73</ele>
      </trkpt>
      <trkpt lat="33.190137231722474" lon="-96.61956335417926">
        <ele>172.65</ele>
      </trkpt>
      <trkpt lat="33.19016933441162" lon="-96.61975622177124">
        <ele>172.63</ele>
      </trkpt>
      <trkpt lat="33.190083503723145" lon="-96.61990642547607">
        <ele>172.6</ele>
      </trkpt>
      <trkpt lat="33.18991184234619" lon="-96.61997079849243">
        <ele>172.56</ele>
      </trkpt>
      <trkpt lat="33.18965435028076" lon="-96.61990642547607">
        <ele>172.49</ele>
      </trkpt>
      <trkpt lat="33.189396942034364" lon="-96.61997079849243">
        <ele>172.48</ele>
      </trkpt>
      <trkpt lat="33.18939685821533" lon="-96.61997079849243">
        <ele>172.63</ele>
      </trkpt>
      <trkpt lat="33.189289569854736" lon="-96.62005662918091">
        <ele>172.82</ele>
      </trkpt>
      <trkpt lat="33.1892466545105" lon="-96.6201639175415">
        <ele>173.14</ele>
      </trkpt>
      <trkpt lat="33.1892466545105" lon="-96.62024974822998">
        <ele>173.56</ele>
      </trkpt>
      <trkpt lat="33.189332569018006" lon="-96.62044286727905">
        <ele>174.14</ele>
      </trkpt>
      <trkpt lat="33.189332485198975" lon="-96.62064168602228">
        <ele>174.75</ele>
      </trkpt>
      <trkpt lat="33.189332485198975" lon="-96.62083991803229">
        <ele>175.43</ele>
      </trkpt>
      <trkpt lat="33.189332485198975" lon="-96.6209363937378">
        <ele>176.14</ele>
      </trkpt>
      <trkpt lat="33.189353942871094" lon="-96.62104368209839">
        <ele>176.95</ele>
      </trkpt>
      <trkpt lat="33.189547061920166" lon="-96.62115097045898">
        <ele>177.81</ele>
      </trkpt>
      <trkpt lat="33.18965435028076" lon="-96.62130117416382">
        <ele>178.67</ele>
      </trkpt>
      <trkpt lat="33.18978318013251" lon="-96.62134408950806">
        <ele>179.54</ele>
      </trkpt>
      <trkpt lat="33.18978309631348" lon="-96.62134408950806">
        <ele>180.31</ele>
      </trkpt>
      <trkpt lat="33.18991184234619" lon="-96.62136554718018">
        <ele>181.15</ele>
      </trkpt>
      <trkpt lat="33.18997621536255" lon="-96.62136554718018">
        <ele>183.98</ele>
      </trkpt>
      <trkpt lat="33.18997621536255" lon="-96.62147283554077">
        <ele>184.16</ele>
      </trkpt>
      <trkpt lat="33.18999054841697" lon="-96.62175228819251">
        <ele>183.21</ele>
      </trkpt>
      <trkpt lat="33.190004881471395" lon="-96.62203174084425">
        <ele>183.83</ele>
      </trkpt>
      <trkpt lat="33.19001921452582" lon="-96.62230968475342">
        <ele>184.75</ele>
      </trkpt>
      <trkpt lat="33.190024411305785" lon="-96.62259818986058">
        <ele>184.77</ele>
      </trkpt>
      <trkpt lat="33.19002960808575" lon="-96.6228857729584">
        <ele>185.0</ele>
      </trkpt>
      <trkpt lat="33.190035140141845" lon="-96.62318835966289">
        <ele>185.07</ele>
      </trkpt>
      <trkpt lat="33.19004067219794" lon="-96.62348985671997">
        <ele>184.54</ele>
      </trkpt>
      <trkpt lat="33.19005676545203" lon="-96.62383913062513">
        <ele>184.93</ele>
      </trkpt>
      <trkpt lat="33.19007285870612" lon="-96.62418848834932">
        <ele>184.7</ele>
      </trkpt>
      <trkpt lat="33.19008903577924" lon="-96.62453776225448">
        <ele>184.34</ele>
      </trkpt>
      <trkpt lat="33.190105045214295" lon="-96.62488460540771">
        <ele>183.13</ele>
      </trkpt>
      <trkpt lat="33.190104961395264" lon="-96.62488460540771">
        <ele>182.69</ele>
      </trkpt>
      <trkpt lat="33.19011418148875" lon="-96.6251808218658">
        <ele>183.13</ele>
      </trkpt>
      <trkpt lat="33.19012340158224" lon="-96.62547712214291">
        <ele>182.6</ele>
      </trkpt>
      <trkpt lat="33.19013270549476" lon="-96.62577342242002">
        <ele>181.97</ele>
      </trkpt>
      <trkpt lat="33.19014192558825" lon="-96.62606762722135">
        <ele>181.24</ele>
      </trkpt>
      <trkpt lat="33.1901478767395" lon="-96.62625789642334">
        <ele>180.27</ele>
      </trkpt>
      <trkpt lat="33.18994461558759" lon="-96.62625789642334">
        <ele>179.75</ele>
      </trkpt>
      <trkpt lat="33.18974026478827" lon="-96.62625789642334">
        <ele>178.85</ele>
      </trkpt>
      <trkpt lat="33.18951194174588" lon="-96.62626502104104">
        <ele>178.18</ele>
      </trkpt>
      <trkpt lat="33.189283702522516" lon="-96.62627214565873">
        <ele>177.36</ele>
      </trkpt>
      <trkpt lat="33.189053535461426" lon="-96.62627935409546">
        <ele>176.49</ele>
      </trkpt>
      <trkpt lat="33.188796043395996" lon="-96.62638664245605">
        <ele>175.68</ele>
      </trkpt>
      <trkpt lat="33.1886887550354" lon="-96.6265260335058">
        <ele>174.93</ele>
      </trkpt>
      <trkpt lat="33.188581466674805" lon="-96.6266655921936">
        <ele>174.29</ele>
      </trkpt>
      <trkpt lat="33.188459761440754" lon="-96.62691604346037">
        <ele>173.57</ele>
      </trkpt>
      <trkpt lat="33.1883380562067" lon="-96.62716657854617">
        <ele>172.85</ele>
      </trkpt>
      <trkpt lat="33.18821668624878" lon="-96.62741661071777">
        <ele>172.22</ele>
      </trkpt>
      <trkpt lat="33.18809749558568" lon="-96.62733413279057">
        <ele>171.56</ele>
      </trkpt>
      <trkpt lat="33.18793773651123" lon="-96.6272234916687">
        <ele>171.08</ele>
      </trkpt>
      <trkpt lat="33.18774470128119" lon="-96.62700187414885">
        <ele>170.47</ele>
      </trkpt>
      <trkpt lat="33.18755166605115" lon="-96.62678025662899">
        <ele>169.94</ele>
      </trkpt>
      <trkpt lat="33.18735871464014" lon="-96.62655863910913">
        <ele>169.43</ele>
      </trkpt>
      <trkpt lat="33.1871656794101" lon="-96.62633702158928">
        <ele>168.97</ele>
      </trkpt>
      <trkpt lat="33.18697264418006" lon="-96.62611548788846">
        <ele>168.56</ele>
      </trkpt>
      <trkpt lat="33.1867790222168" lon="-96.62589311599731">
        <ele>168.08</ele>
      </trkpt>
      <trkpt lat="33.18681858479977" lon="-96.62575473077595">
        <ele>167.87</ele>
      </trkpt>
      <trkpt lat="33.1867790222168" lon="-96.62589311599731">
        <ele>168.08</ele>
      </trkpt>
      <trkpt lat="33.18665027618408" lon="-96.62608623504639">
        <ele>167.78</ele>
      </trkpt>
      <trkpt lat="33.18647869862616" lon="-96.62625789642334">
        <ele>167.5</ele>
      </trkpt>
      <trkpt lat="33.18637132644653" lon="-96.6263222694397">
        <ele>167.26</ele>
      </trkpt>
      <trkpt lat="33.186135375872254" lon="-96.62638664245605">
        <ele>167.04</ele>
      </trkpt>
      <trkpt lat="33.18600654602051" lon="-96.62640810012817">
        <ele>166.84</ele>
      </trkpt>
      <trkpt lat="33.18600654602051" lon="-96.6263222694397">
        <ele>166.72</ele>
      </trkpt>
      <trkpt lat="33.18596354685724" lon="-96.62599981762469">
        <ele>166.62</ele>
      </trkpt>
      <trkpt lat="33.18592071533203" lon="-96.62567853927612">
        <ele>166.54</ele>
      </trkpt>
      <trkpt lat="33.18619966506958" lon="-96.62550687789917">
        <ele>166.5</ele>
      </trkpt>
      <trkpt lat="33.18624266423285" lon="-96.62550687789917">
        <ele>166.59</ele>
      </trkpt>
      <trkpt lat="33.18624258041382" lon="-96.62550687789917">
        <ele>166.49</ele>
      </trkpt>
      <trkpt lat="33.18613529205322" lon="-96.62564626894891">
        <ele>166.64</ele>
      </trkpt>
      <trkpt lat="33.18602800369263" lon="-96.62578582763672">
        <ele>166.51</ele>
      </trkpt>
      <trkpt lat="33.18596363067627" lon="-96.62578582763672">
        <ele>166.55</ele>
      </trkpt>
      <trkpt lat="33.18570613861084" lon="-96.62585020065308">
        <ele>166.6</ele>
      </trkpt>
      <trkpt lat="33.1856632232666" lon="-96.6258716583252">
        <ele>166.66</ele>
      </trkpt>
      <trkpt lat="33.185577392578125" lon="-96.62600040435791">
        <ele>166.73</ele>
      </trkpt>
      <trkpt lat="33.185555934906006" lon="-96.62612915039062">
        <ele>166.8</ele>
      </trkpt>
      <trkpt lat="33.185598934069276" lon="-96.626354791224">
        <ele>167.11</ele>
      </trkpt>
      <trkpt lat="33.185641849413514" lon="-96.62657976150513">
        <ele>166.95</ele>
      </trkpt>
      <trkpt lat="33.18564176559448" lon="-96.62657976150513">
        <ele>167.03</ele>
      </trkpt>
      <trkpt lat="33.18562743254006" lon="-96.62693079560995">
        <ele>167.37</ele>
      </trkpt>
      <trkpt lat="33.185613099485636" lon="-96.6272819135338">
        <ele>167.44</ele>
      </trkpt>
      <trkpt lat="33.185598850250244" lon="-96.62763118743896">
        <ele>167.24</ele>
      </trkpt>
      <trkpt lat="33.185545122250915" lon="-96.62787828594446">
        <ele>167.62</ele>
      </trkpt>
      <trkpt lat="33.18549156188965" lon="-96.6281247138977">
        <ele>167.38</ele>
      </trkpt>
      <trkpt lat="33.18551301956177" lon="-96.62842562422156">
        <ele>167.73</ele>
      </trkpt>
      <trkpt lat="33.18553447723389" lon="-96.62872552871704">
        <ele>167.49</ele>
      </trkpt>
      <trkpt lat="33.185502206906676" lon="-96.62895116955042">
        <ele>167.72</ele>
      </trkpt>
      <trkpt lat="33.18547010421753" lon="-96.62917613983154">
        <ele>167.51</ele>
      </trkpt>
      <trkpt lat="33.185362815856934" lon="-96.6293478012085">
        <ele>167.49</ele>
      </trkpt>
      <trkpt lat="33.18519115447998" lon="-96.62956221029162">
        <ele>167.46</ele>
      </trkpt>
      <trkpt lat="33.18501949310303" lon="-96.62977695465088">
        <ele>167.37</ele>
      </trkpt>
      <trkpt lat="33.18486945703626" lon="-96.62990553304553">
        <ele>167.19</ele>
      </trkpt>
      <trkpt lat="33.18471916951239" lon="-96.63003444671631">
        <ele>167.32</ele>
      </trkpt>
      <trkpt lat="33.184547424316406" lon="-96.63012027740479">
        <ele>166.89</ele>
      </trkpt>
      <trkpt lat="33.18439722061157" lon="-96.6301417350769">
        <ele>166.68</ele>
      </trkpt>
      <trkpt lat="33.184332847595215" lon="-96.63018465042114">
        <ele>166.49</ele>
      </trkpt>
      <trkpt lat="33.184231678023934" lon="-96.63015707395971">
        <ele>166.29</ele>
      </trkpt>
      <trkpt lat="33.184096813201904" lon="-96.63012027740479">
        <ele>166.12</ele>
      </trkpt>
      <trkpt lat="33.18392515182495" lon="-96.63022756576538">
        <ele>165.94</ele>
      </trkpt>
      <trkpt lat="33.183839321136475" lon="-96.63022756576538">
        <ele>165.78</ele>
      </trkpt>
      <trkpt lat="33.18373203277588" lon="-96.63020610809326">
        <ele>165.62</ele>
      </trkpt>
      <trkpt lat="33.18351753987372" lon="-96.62997015751898">
        <ele>165.46</ele>
      </trkpt>
      <trkpt lat="33.18330313079059" lon="-96.62973429076374">
        <ele>165.25</ele>
      </trkpt>
      <trkpt lat="33.183088302612305" lon="-96.62949800491333">
        <ele>165.14</ele>
      </trkpt>
      <trkpt lat="33.18298101425171" lon="-96.62930488586426">
        <ele>165.04</ele>
      </trkpt>
      <trkpt lat="33.18289518356323" lon="-96.62898302078247">
        <ele>164.97</ele>
      </trkpt>
      <trkpt lat="33.18298109807074" lon="-96.62874665111303">
        <ele>164.92</ele>
      </trkpt>
      <trkpt lat="33.183066844940186" lon="-96.62851095199585">
        <ele>164.9</ele>
      </trkpt>
      <trkpt lat="33.183088302612305" lon="-96.62840366363525">
        <ele>164.89</ele>
      </trkpt>
      <trkpt lat="33.183066844940186" lon="-96.6282320022583">
        <ele>164.92</ele>
      </trkpt>
      <trkpt lat="33.18294866010547" lon="-96.62788826040924">
        <ele>164.96</ele>
      </trkpt>
      <trkpt lat="33.182830810546875" lon="-96.62754535675049">
        <ele>165.02</ele>
      </trkpt>
      <trkpt lat="33.18270198069513" lon="-96.627287697047">
        <ele>165.11</ele>
      </trkpt>
      <trkpt lat="33.182573318481445" lon="-96.62703037261963">
        <ele>165.2</ele>
      </trkpt>
      <trkpt lat="33.18246594630182" lon="-96.62684789858758">
        <ele>165.36</ele>
      </trkpt>
      <trkpt lat="33.182358741760254" lon="-96.6266655921936">
        <ele>165.51</ele>
      </trkpt>
      <trkpt lat="33.18216562271118" lon="-96.6264295578003">
        <ele>165.61</ele>
      </trkpt>
      <trkpt lat="33.181972838938236" lon="-96.62632243707776">
        <ele>165.72</ele>
      </trkpt>
      <trkpt lat="33.18177938461304" lon="-96.6262149810791">
        <ele>165.82</ele>
      </trkpt>
      <trkpt lat="33.18154335021973" lon="-96.62600040435791">
        <ele>165.91</ele>
      </trkpt>
      <trkpt lat="33.18143606185913" lon="-96.62597894668579">
        <ele>165.98</ele>
      </trkpt>
      <trkpt lat="33.18126440048218" lon="-96.62582874298096">
        <ele>166.07</ele>
      </trkpt>
      <trkpt lat="33.18120002746582" lon="-96.62569999694824">
        <ele>166.13</ele>
      </trkpt>
      <trkpt lat="33.181114196777344" lon="-96.6254210472107">
        <ele>166.22</ele>
      </trkpt>
      <trkpt lat="33.18095334805548" lon="-96.62526019848883">
        <ele>166.18</ele>
      </trkpt>
      <trkpt lat="33.18079233169556" lon="-96.6250991821289">
        <ele>166.17</ele>
      </trkpt>
      <trkpt lat="33.18073860369623" lon="-96.6249165404588">
        <ele>166.18</ele>
      </trkpt>
      <trkpt lat="33.18068504333496" lon="-96.62473440170288">
        <ele>166.11</ele>
      </trkpt>
      <trkpt lat="33.1806206703186" lon="-96.62462711334229">
        <ele>166.02</ele>
      </trkpt>
      <trkpt lat="33.18051338195801" lon="-96.62449836730957">
        <ele>165.95</ele>
      </trkpt>
      <trkpt lat="33.18036342971027" lon="-96.6244019754231">
        <ele>165.83</ele>
      </trkpt>
      <trkpt lat="33.18021297454834" lon="-96.6243052482605">
        <ele>165.69</ele>
      </trkpt>
      <trkpt lat="33.17999839782715" lon="-96.62436962127686">
        <ele>165.55</ele>
      </trkpt>
      <trkpt lat="33.17984852939844" lon="-96.62444455549121">
        <ele>165.4</ele>
      </trkpt>
      <trkpt lat="33.17969807423651" lon="-96.62451982498169">
        <ele>165.3</ele>
      </trkpt>
      <trkpt lat="33.17944049835205" lon="-96.62467002868652">
        <ele>165.38</ele>
      </trkpt>
      <trkpt lat="33.17924737930298" lon="-96.62462711334229">
        <ele>165.37</ele>
      </trkpt>
      <trkpt lat="33.17922592163086" lon="-96.62451982498169">
        <ele>165.38</ele>
      </trkpt>
      <trkpt lat="33.17901134490967" lon="-96.62436962127686">
        <ele>165.42</ele>
      </trkpt>
      <trkpt lat="33.17896842956543" lon="-96.62428379058838">
        <ele>165.49</ele>
      </trkpt>
      <trkpt lat="33.17896842956543" lon="-96.62400484085083">
        <ele>165.68</ele>
      </trkpt>
      <trkpt lat="33.17892551422119" lon="-96.62379026412964">
        <ele>165.75</ele>
      </trkpt>
      <trkpt lat="33.178954096511006" lon="-96.62350360304117">
        <ele>165.68</ele>
      </trkpt>
      <trkpt lat="33.17898276261985" lon="-96.62321702577174">
        <ele>165.88</ele>
      </trkpt>
      <trkpt lat="33.17901134490967" lon="-96.62293195724487">
        <ele>166.34</ele>
      </trkpt>
      <trkpt lat="33.17896842956543" lon="-96.62269592285156">
        <ele>166.51</ele>
      </trkpt>
    </trkseg>
  </trk>
</gpx>
